{
  "type": "FeatureCollection",
  "name": "sections",
  "crs": { "type": "name", "properties": { "name": "urn:ogc:def:crs:EPSG::4087" } },
  "features": [
    {"type": "Feature","id": 1,"properties": {"admin_level": 10,"boundary": "administrative","county": "Kelly County","county_slug": "kelly","id": 1,"is_in:country": "United States","is_in:county": "Kelly County","is_in:state": "Leonida","layer": 0,"municipality": null,"name": "Ambrosia Hills","place": "locality","state": "Leonida","type": "land"},"geometry": {"coordinates": [[[-4750.0,5650.0],[-4750.0,5440.0],[-4740.0,5410.0],[-4740.0,5380.0],[-4780.0,5350.0],[-4810.0,5320.0],[-4860.0,5300.0],[-4900.0,5270.0],[-4940.0,5230.0],[-4950.0,5180.0],[-4970.0,5150.0],[-5010.0,5110.0],[-5040.0,5090.0],[-5050.0,5050.0],[-5070.0,5020.0],[-5100.0,4990.0],[-5150.0,4970.0],[-5190.0,4940.0],[-5240.0,4900.0],[-5370.0,4840.0],[-5390.0,4810.0],[-5390.0,4780.0],[-5370.0,4750.0],[-5330.0,4740.0],[-5270.0,4730.0],[-5150.0,4720.0],[-5080.0,4730.0],[-5040.0,4710.0],[-5020.0,4670.0],[-5020.0,4620.0],[-5040.0,4550.0],[-5000.0,4540.0],[-4960.0,4570.0],[-4860.0,4540.0],[-4830.0,4620.0],[-4780.0,4620.0],[-4740.0,4600.0],[-4680.0,4510.0],[-4590.0,4500.0],[-4500.0,4520.0],[-4430.0,4610.0],[-4390.0,4700.0],[-4300.0,4790.0],[-4200.0,4830.0],[-4040.0,4990.0],[-3930.0,5130.0],[-3890.0,5140.0],[-3740.0,5080.0],[-3600.0,5170.0],[-3510.0,5170.0],[-3440.0,5120.0],[-3430.0,5030.0],[-3390.0,4980.0],[-3310.0,4960.0],[-3220.0,5010.0],[-3110.0,5030.0],[-2990.0,4980.0],[-2770.0,4830.0],[-2550.0,4710.0],[-2540.0,4760.0],[-2530.0,4830.0],[-2510.0,4860.0],[-2530.0,5010.0],[-2520.0,5180.0],[-2480.0,5230.0],[-2560.0,5310.0],[-2660.0,5370.0],[-2680.0,5440.0],[-2680.0,5490.0],[-2700.0,5540.0],[-2700.0,5580.0],[-2740.0,5640.0],[-2730.0,5680.0],[-2740.0,5700.0],[-2750.0,5720.0],[-2810.0,5720.0],[-3050.0,5770.0],[-3270.0,5840.0],[-3380.0,5870.0],[-3470.0,5880.0],[-3580.0,5860.0],[-3670.0,5820.0],[-3740.0,5810.0],[-3800.0,5840.0],[-3860.0,5910.0],[-3900.0,5930.0],[-3950.0,5940.0],[-3990.0,5920.0],[-4070.0,5940.0],[-4170.0,5950.0],[-4270.0,5940.0],[-4340.0,5920.0],[-4600.0,5720.0],[-4750.0,5650.0]]],"type": "Polygon"}},
    {"type": "Feature","id": 2,"properties": {"admin_level": 10,"boundary": "administrative","county": "Kelly County","county_slug": "kelly","id": 2,"is_in:country": "United States","is_in:county": "Kelly County","is_in:state": "Leonida","layer": 0,"municipality": null,"name": "Buckskin","place": "locality","state": "Leonida","type": "land"},"geometry": {"coordinates": [[[-6090.0,420.0],[-5860.0,670.0],[-5630.0,920.0],[-5530.0,1020.0],[-5310.0,1170.0],[-5230.0,1120.0],[-5100.0,1080.0],[-4950.0,940.0],[-4740.0,890.0],[-4370.0,900.0],[-4170.0,900.0],[-3990.0,870.0],[-3740.0,800.0],[-3480.0,780.0],[-3310.0,790.0],[-3120.0,810.0],[-3100.0,770.0],[-2910.0,520.0],[-2880.0,440.0],[-2980.0,380.0],[-3200.0,370.0],[-3390.0,440.0],[-3680.0,470.0],[-3770.0,460.0],[-3900.0,460.0],[-4390.0,550.0],[-4460.0,540.0],[-4610.0,450.0],[-4770.0,390.0],[-4850.0,280.0],[-5120.0,80.0],[-5300.0,50.0],[-5550.0,190.0],[-5650.0,210.0],[-5880.0,170.0],[-5950.0,200.0],[-6090.0,420.0]]],"type": "Polygon"}},
    {"type": "Feature","id": 3,"properties": {"admin_level": 10,"boundary": "administrative","county": "Kelly County","county_slug": "kelly","id": 3,"is_in:country": "United States","is_in:county": "Kelly County","is_in:state": "Leonida","layer": 0,"municipality": null,"name": "Emerald Springs","place": "locality","state": "Leonida","type": "land"},"geometry": {"coordinates": [[[-5310.0,1170.0],[-4950.0,1390.0],[-4830.0,1530.0],[-4800.0,1700.0],[-4810.0,1920.0],[-4820.0,2160.0],[-4800.0,2420.0],[-4680.0,2430.0],[-4570.0,2550.0],[-4450.0,2630.0],[-4420.0,2690.0],[-4480.0,2820.0],[-4510.0,2950.0],[-4440.0,3090.0],[-4220.0,3020.0],[-3800.0,2770.0],[-3760.0,2750.0],[-3790.0,2720.0],[-3970.0,2240.0],[-3700.0,2230.0],[-3550.0,2200.0],[-3400.0,2100.0],[-3310.0,1970.0],[-3230.0,1670.0],[-3160.0,1560.0],[-3060.0,1470.0],[-3000.0,1490.0],[-2900.0,1480.0],[-2910.0,1400.0],[-3020.0,1040.0],[-3100.0,940.0],[-3120.0,850.0],[-3120.0,810.0],[-3310.0,790.0],[-3480.0,780.0],[-3740.0,800.0],[-3990.0,870.0],[-4170.0,900.0],[-4370.0,900.0],[-4740.0,890.0],[-4950.0,940.0],[-5100.0,1080.0],[-5230.0,1120.0],[-5310.0,1170.0]]],"type": "Polygon"}},
    {"type": "Feature","id": 4,"properties": {"admin_level": 10,"boundary": "administrative","county": "Kelly County","county_slug": "kelly","id": 4,"is_in:country": "United States","is_in:county": "Kelly County","is_in:state": "Leonida","layer": 0,"municipality": null,"name": "Gellhorn International Raceway","place": "locality","state": "Leonida","type": "land"},"geometry": {"coordinates": [[[-7420.0,1010.0],[-7400.0,1270.0],[-7560.0,1620.0],[-7980.0,1830.0],[-7950.0,1970.0],[-7550.0,2250.0],[-7400.0,2450.0],[-7120.0,2640.0],[-6920.0,2890.0],[-6730.0,3070.0],[-6700.0,2990.0],[-6640.0,3000.0],[-6570.0,2990.0],[-6530.0,2980.0],[-6550.0,2910.0],[-6540.0,2860.0],[-6490.0,2820.0],[-6440.0,2810.0],[-6360.0,2810.0],[-6290.0,2810.0],[-6270.0,2810.0],[-6260.0,2620.0],[-6180.0,2740.0],[-6160.0,2760.0],[-6040.0,2790.0],[-6000.0,2790.0],[-5880.0,2760.0],[-5820.0,2760.0],[-5650.0,2770.0],[-5590.0,2760.0],[-5530.0,2700.0],[-5510.0,2630.0],[-5550.0,2470.0],[-5550.0,2440.0],[-5540.0,2320.0],[-5560.0,2210.0],[-5570.0,2130.0],[-5600.0,2080.0],[-5660.0,2060.0],[-5730.0,2060.0],[-5790.0,2060.0],[-5850.0,2030.0],[-5900.0,2040.0],[-6010.0,2080.0],[-6100.0,2080.0],[-6150.0,2050.0],[-6190.0,2000.0],[-6220.0,1930.0],[-6230.0,1830.0],[-6230.0,1720.0],[-6220.0,1550.0],[-6220.0,1450.0],[-6270.0,1270.0],[-6330.0,1230.0],[-6290.0,1040.0],[-6240.0,950.0],[-6140.0,830.0],[-5980.0,720.0],[-5860.0,670.0],[-6090.0,420.0],[-6370.0,650.0],[-6730.0,760.0],[-6860.0,730.0],[-7130.0,840.0],[-7420.0,1010.0]]],"type": "Polygon"}},
    {"type": "Feature","id": 5,"properties": {"admin_level": 10,"boundary": "administrative","county": "Kelly County","county_slug": "kelly","id": 5,"is_in:country": "United States","is_in:county": "Kelly County","is_in:state": "Leonida","layer": 0,"municipality": null,"name": "Kelly County Barrier Islands","place": "islet","state": "Leonida","type": "land"},"geometry": {"coordinates": [[[-9110.0,4640.0],[-8980.0,4240.0],[-8470.0,3980.0],[-8180.0,3650.0],[-7730.0,3570.0],[-7740.0,3480.0],[-7810.0,3400.0],[-7800.0,3360.0],[-7840.0,3270.0],[-7790.0,3100.0],[-7730.0,2990.0],[-7690.0,2940.0],[-7650.0,2860.0],[-7580.0,2800.0],[-7480.0,2790.0],[-7350.0,2850.0],[-7280.0,2960.0],[-7220.0,3030.0],[-7130.0,3100.0],[-7060.0,3180.0],[-7010.0,3270.0],[-6960.0,3310.0],[-6860.0,3310.0],[-6800.0,3280.0],[-6710.0,3280.0],[-6660.0,3250.0],[-6670.0,3180.0],[-6690.0,3120.0],[-6730.0,3070.0],[-6920.0,2890.0],[-7120.0,2640.0],[-7400.0,2450.0],[-7550.0,2250.0],[-7950.0,1970.0],[-7980.0,1830.0],[-7560.0,1620.0],[-7400.0,1270.0],[-7420.0,1010.0],[-8010.0,1070.0],[-8500.0,1480.0],[-9160.0,1250.0],[-9560.0,1890.0],[-9690.0,2380.0],[-9740.0,2760.0],[-9610.0,2970.0],[-9550.0,3310.0],[-9440.0,3540.0],[-9570.0,4110.0],[-9110.0,4640.0]]],"type": "Polygon"}},
    {"type": "Feature","id": 6,"properties": {"admin_level": 10,"boundary": "administrative","county": "Kelly County","county_slug": "kelly","id": 6,"is_in:country": "United States","is_in:county": "Kelly County","is_in:state": "Leonida","layer": 0,"municipality": null,"name": "Mount Waffles","place": "locality","state": "Leonida","type": "land"},"geometry": {"coordinates": [[[-6310.0,5680.0],[-6460.0,5400.0],[-6450.0,5060.0],[-6210.0,4940.0],[-6210.0,4880.0],[-6160.0,4870.0],[-6040.0,4890.0],[-5990.0,4910.0],[-5940.0,4910.0],[-5890.0,4880.0],[-5760.0,4890.0],[-5700.0,4810.0],[-5680.0,4710.0],[-5630.0,4680.0],[-5490.0,4720.0],[-5340.0,4590.0],[-5130.0,4580.0],[-5040.0,4550.0],[-5020.0,4620.0],[-5020.0,4670.0],[-5040.0,4710.0],[-5080.0,4730.0],[-5150.0,4720.0],[-5270.0,4730.0],[-5330.0,4740.0],[-5370.0,4750.0],[-5390.0,4780.0],[-5390.0,4810.0],[-5370.0,4840.0],[-5240.0,4900.0],[-5190.0,4940.0],[-5150.0,4970.0],[-5100.0,4990.0],[-5070.0,5020.0],[-5050.0,5050.0],[-5040.0,5090.0],[-5010.0,5110.0],[-4970.0,5150.0],[-4950.0,5180.0],[-4940.0,5230.0],[-4900.0,5270.0],[-4860.0,5300.0],[-4810.0,5320.0],[-4780.0,5350.0],[-4740.0,5380.0],[-4740.0,5410.0],[-4750.0,5440.0],[-4750.0,5650.0],[-4850.0,5650.0],[-4960.0,5740.0],[-5020.0,5850.0],[-5090.0,5910.0],[-5160.0,5950.0],[-5260.0,5980.0],[-5440.0,5980.0],[-5650.0,5910.0],[-5740.0,5770.0],[-5930.0,5550.0],[-6310.0,5680.0]]],"type": "Polygon"}},
    {"type": "Feature","id": 7,"properties": {"admin_level": 10,"boundary": "administrative","county": "Kelly County","county_slug": "kelly","id": 7,"is_in:country": "United States","is_in:county": "Kelly County","is_in:state": "Leonida","layer": 0,"municipality": null,"name": "North Ambrosia","place": "suburb","state": "Leonida","type": "land"},"geometry": {"coordinates": [[[-3390.0,4270.0],[-3240.0,4270.0],[-3180.0,4290.0],[-3130.0,4320.0],[-2870.0,4460.0],[-2770.0,4830.0],[-2990.0,4980.0],[-3110.0,5030.0],[-3220.0,5010.0],[-3310.0,4960.0],[-3390.0,4980.0],[-3430.0,5030.0],[-3440.0,5120.0],[-3510.0,5170.0],[-3600.0,5170.0],[-3740.0,5080.0],[-3890.0,5140.0],[-3930.0,5130.0],[-4040.0,4990.0],[-4200.0,4830.0],[-4300.0,4790.0],[-4390.0,4700.0],[-4430.0,4610.0],[-4500.0,4520.0],[-4590.0,4500.0],[-4680.0,4510.0],[-4740.0,4600.0],[-4780.0,4620.0],[-4830.0,4620.0],[-4860.0,4540.0],[-4960.0,4570.0],[-5000.0,4540.0],[-5040.0,4550.0],[-5070.0,4410.0],[-4980.0,4400.0],[-4920.0,4390.0],[-4730.0,4300.0],[-4660.0,4300.0],[-4610.0,4280.0],[-4580.0,4220.0],[-4530.0,4160.0],[-4520.0,4090.0],[-4280.0,4120.0],[-3910.0,4140.0],[-3760.0,4190.0],[-3680.0,4250.0],[-3620.0,4270.0],[-3390.0,4270.0]]],"type": "Polygon"}},
    {"type": "Feature","id": 8,"properties": {"admin_level": 10,"boundary": "administrative","county": "Kelly County","county_slug": "kelly","id": 8,"is_in:country": "United States","is_in:county": "Kelly County","is_in:state": "Leonida","layer": 0,"municipality": null,"name": "North Gellhorn Hills","place": "locality","state": "Leonida","type": "land"},"geometry": {"coordinates": [[[-5820.0,2760.0],[-5720.0,2930.0],[-5580.0,3100.0],[-5430.0,3220.0],[-5240.0,3350.0],[-5070.0,3440.0],[-4930.0,3480.0],[-4730.0,3500.0],[-4520.0,3510.0],[-4520.0,3680.0],[-4680.0,3680.0],[-4830.0,3700.0],[-4910.0,3790.0],[-4980.0,3900.0],[-5210.0,3960.0],[-5260.0,4060.0],[-5220.0,4180.0],[-5220.0,4280.0],[-5320.0,4420.0],[-5340.0,4590.0],[-5490.0,4720.0],[-5630.0,4680.0],[-5680.0,4710.0],[-5700.0,4810.0],[-5760.0,4890.0],[-5890.0,4880.0],[-5960.0,4790.0],[-6060.0,4640.0],[-6140.0,4460.0],[-6270.0,4100.0],[-6300.0,3940.0],[-6310.0,3830.0],[-6310.0,3750.0],[-6290.0,3490.0],[-6280.0,3340.0],[-6270.0,3150.0],[-6270.0,3030.0],[-6290.0,2810.0],[-6270.0,2810.0],[-6260.0,2620.0],[-6180.0,2740.0],[-6160.0,2760.0],[-6040.0,2790.0],[-6000.0,2790.0],[-5880.0,2760.0],[-5820.0,2760.0]]],"type": "Polygon"}},
    {"type": "Feature","id": 9,"properties": {"admin_level": 10,"boundary": "administrative","county": "Kelly County","county_slug": "kelly","id": 9,"is_in:country": "United States","is_in:county": "Kelly County","is_in:state": "Leonida","layer": 0,"municipality": null,"name": "North Shores","place": "locality","state": "Leonida","type": "land"},"geometry": {"coordinates": [[[-1770.0,5460.0],[-1740.0,5490.0],[-1700.0,5440.0],[-1700.0,5370.0],[-1470.0,5200.0],[-1430.0,5120.0],[-1340.0,5120.0],[-1390.0,5210.0],[-1440.0,5310.0],[-1500.0,5380.0],[-1570.0,5460.0],[-1630.0,5530.0],[-1710.0,5600.0],[-1690.0,5770.0],[-1650.0,5890.0],[-1590.0,6000.0],[-1480.0,6050.0],[-1430.0,6110.0],[-1400.0,6160.0],[-1380.0,6240.0],[-1560.0,6230.0],[-1700.0,6200.0],[-1810.0,6150.0],[-1870.0,6100.0],[-1930.0,6000.0],[-1990.0,5880.0],[-2050.0,5820.0],[-2140.0,5780.0],[-2280.0,5740.0],[-2410.0,5720.0],[-2550.0,5710.0],[-2670.0,5710.0],[-2750.0,5720.0],[-2740.0,5700.0],[-2730.0,5680.0],[-2740.0,5640.0],[-2700.0,5580.0],[-2700.0,5540.0],[-2680.0,5490.0],[-2680.0,5440.0],[-2660.0,5370.0],[-2560.0,5310.0],[-2480.0,5230.0],[-2390.0,5130.0],[-2340.0,5210.0],[-2270.0,5210.0],[-2190.0,5250.0],[-2150.0,5300.0],[-2040.0,5300.0],[-2020.0,5330.0],[-1830.0,5410.0],[-1770.0,5460.0]]],"type": "Polygon"}},
    {"type": "Feature","id": 10,"properties": {"admin_level": 10,"boundary": "administrative","county": "Kelly County","county_slug": "kelly","id": 10,"is_in:country": "United States","is_in:county": "Kelly County","is_in:state": "Leonida","layer": 0,"municipality": null,"name": "Port PGH","place": "locality","state": "Leonida","type": "land"},"geometry": {"coordinates": [[[-6210.0,4880.0],[-6210.0,4940.0],[-6450.0,5060.0],[-6460.0,5400.0],[-6310.0,5680.0],[-6890.0,5580.0],[-7380.0,5580.0],[-7820.0,5550.0],[-8080.0,5410.0],[-8600.0,5270.0],[-9110.0,4640.0],[-8980.0,4240.0],[-8470.0,3980.0],[-8180.0,3650.0],[-7730.0,3570.0],[-7640.0,3630.0],[-7460.0,3690.0],[-7290.0,3720.0],[-7150.0,3770.0],[-7060.0,3890.0],[-6760.0,4270.0],[-6640.0,4340.0],[-6520.0,4430.0],[-6480.0,4500.0],[-6450.0,4560.0],[-6440.0,4620.0],[-6470.0,4650.0],[-6390.0,4720.0],[-6360.0,4790.0],[-6300.0,4840.0],[-6210.0,4880.0]]],"type": "Polygon"}},
    {"type": "Feature","id": 11,"properties": {"admin_level": 10,"boundary": "administrative","county": "Kelly County","county_slug": "kelly","id": 11,"is_in:country": "United States","is_in:county": "Kelly County","is_in:state": "Leonida","layer": 0,"municipality": null,"name": "South Ambrosia","place": "suburb","state": "Leonida","type": "land"},"geometry": {"coordinates": [[[-3800.0,2770.0],[-3760.0,2750.0],[-3790.0,2720.0],[-3970.0,2240.0],[-3700.0,2230.0],[-3550.0,2200.0],[-3400.0,2100.0],[-3310.0,1970.0],[-3230.0,1670.0],[-3160.0,1560.0],[-3060.0,1470.0],[-3000.0,1490.0],[-2900.0,1480.0],[-2900.0,1520.0],[-2770.0,1530.0],[-2780.0,1690.0],[-2770.0,2760.0],[-2780.0,2910.0],[-3000.0,2930.0],[-3250.0,3010.0],[-3450.0,3060.0],[-3520.0,3100.0],[-3630.0,3190.0],[-3710.0,3320.0],[-3760.0,3380.0],[-3940.0,3430.0],[-4040.0,3470.0],[-4140.0,3570.0],[-4180.0,3620.0],[-4230.0,3670.0],[-4380.0,3670.0],[-4520.0,3680.0],[-4520.0,3510.0],[-4520.0,3230.0],[-4510.0,3150.0],[-4440.0,3090.0],[-4220.0,3020.0],[-3800.0,2770.0]]],"type": "Polygon"}},
    {"type": "Feature","id": 12,"properties": {"admin_level": 10,"boundary": "administrative","county": "Kelly County","county_slug": "kelly","id": 12,"is_in:country": "United States","is_in:county": "Kelly County","is_in:state": "Leonida","layer": 0,"municipality": null,"name": "South Gellhorn Hills","place": "locality","state": "Leonida","type": "land"},"geometry": {"coordinates": [[[-5820.0,2760.0],[-5720.0,2930.0],[-5580.0,3100.0],[-5430.0,3220.0],[-5240.0,3350.0],[-5070.0,3440.0],[-4930.0,3480.0],[-4730.0,3500.0],[-4520.0,3510.0],[-4520.0,3230.0],[-4510.0,3150.0],[-4440.0,3090.0],[-4510.0,2950.0],[-4480.0,2820.0],[-4420.0,2690.0],[-4450.0,2630.0],[-4570.0,2550.0],[-4680.0,2430.0],[-4800.0,2420.0],[-4820.0,2160.0],[-4810.0,1920.0],[-4800.0,1700.0],[-4830.0,1530.0],[-4950.0,1390.0],[-5310.0,1170.0],[-5530.0,1020.0],[-5630.0,920.0],[-5860.0,670.0],[-5980.0,720.0],[-6140.0,830.0],[-6240.0,950.0],[-6290.0,1040.0],[-6330.0,1230.0],[-6270.0,1270.0],[-6220.0,1450.0],[-6220.0,1550.0],[-6230.0,1720.0],[-6230.0,1830.0],[-6220.0,1930.0],[-6190.0,2000.0],[-6150.0,2050.0],[-6100.0,2080.0],[-6010.0,2080.0],[-5900.0,2040.0],[-5850.0,2030.0],[-5790.0,2060.0],[-5730.0,2060.0],[-5660.0,2060.0],[-5600.0,2080.0],[-5570.0,2130.0],[-5560.0,2210.0],[-5540.0,2320.0],[-5550.0,2440.0],[-5550.0,2470.0],[-5510.0,2630.0],[-5530.0,2700.0],[-5590.0,2760.0],[-5650.0,2770.0],[-5820.0,2760.0]]],"type": "Polygon"}},
    {"type": "Feature","id": 13,"properties": {"admin_level": 10,"boundary": "administrative","county": "Kelly County","county_slug": "kelly","id": 13,"is_in:country": "United States","is_in:county": "Kelly County","is_in:state": "Leonida","layer": 0,"municipality": null,"name": "West Ambrosia","place": "suburb","state": "Leonida","type": "land"},"geometry": {"coordinates": [[[-3520.0,3100.0],[-3520.0,3230.0],[-3520.0,3630.0],[-3490.0,3760.0],[-3410.0,3920.0],[-3380.0,3970.0],[-3390.0,4270.0],[-3620.0,4270.0],[-3680.0,4250.0],[-3760.0,4190.0],[-3910.0,4140.0],[-4280.0,4120.0],[-4520.0,4090.0],[-4530.0,4160.0],[-4580.0,4220.0],[-4610.0,4280.0],[-4660.0,4300.0],[-4730.0,4300.0],[-4920.0,4390.0],[-4980.0,4400.0],[-5070.0,4410.0],[-5040.0,4550.0],[-5130.0,4580.0],[-5340.0,4590.0],[-5320.0,4420.0],[-5220.0,4280.0],[-5220.0,4180.0],[-5260.0,4060.0],[-5210.0,3960.0],[-4980.0,3900.0],[-4910.0,3790.0],[-4830.0,3700.0],[-4680.0,3680.0],[-4520.0,3680.0],[-4380.0,3670.0],[-4230.0,3670.0],[-4180.0,3620.0],[-4140.0,3570.0],[-4040.0,3470.0],[-3940.0,3430.0],[-3760.0,3380.0],[-3710.0,3320.0],[-3630.0,3190.0],[-3520.0,3100.0]]],"type": "Polygon"}},
    {"type": "Feature","id": 14,"properties": {"admin_level": 10,"boundary": "administrative","county": "Kelly County","county_slug": "kelly","id": 14,"is_in:country": "United States","is_in:county": "Kelly County","is_in:state": "Leonida","layer": 0,"municipality": "Ambrosia","name": "Ambrosia","place": "suburb","state": "Leonida","type": "land"},"geometry": {"coordinates": [[[-2780.0,2910.0],[-2780.0,2950.0],[-2550.0,3720.0],[-2500.0,3770.0],[-2440.0,3930.0],[-2430.0,4020.0],[-2360.0,4130.0],[-2540.0,4400.0],[-2590.0,4510.0],[-2610.0,4590.0],[-2550.0,4710.0],[-2770.0,4830.0],[-2870.0,4460.0],[-3130.0,4320.0],[-3180.0,4290.0],[-3240.0,4270.0],[-3390.0,4270.0],[-3380.0,3970.0],[-3410.0,3920.0],[-3490.0,3760.0],[-3520.0,3630.0],[-3520.0,3230.0],[-3520.0,3100.0],[-3450.0,3060.0],[-3250.0,3010.0],[-3000.0,2930.0],[-2780.0,2910.0]]],"type": "Polygon"}},
    {"type": "Feature","id": 15,"properties": {"admin_level": 10,"boundary": "administrative","county": "Kelly County","county_slug": "kelly","id": 15,"is_in:country": "United States","is_in:county": "Kelly County","is_in:state": "Leonida","layer": 0,"municipality": "Port Gellhorn","name": "Port Gellhorn","place": "suburb","state": "Leonida","type": "land"},"geometry": {"coordinates": [[[-6700.0,2990.0],[-6640.0,3000.0],[-6570.0,2990.0],[-6530.0,2980.0],[-6550.0,2910.0],[-6540.0,2860.0],[-6490.0,2820.0],[-6440.0,2810.0],[-6360.0,2810.0],[-6290.0,2810.0],[-6270.0,3030.0],[-6270.0,3150.0],[-6280.0,3340.0],[-6290.0,3490.0],[-6310.0,3750.0],[-6310.0,3830.0],[-6300.0,3940.0],[-6270.0,4100.0],[-6140.0,4460.0],[-6060.0,4640.0],[-5960.0,4790.0],[-5890.0,4880.0],[-5940.0,4910.0],[-5990.0,4910.0],[-6040.0,4890.0],[-6160.0,4870.0],[-6210.0,4880.0],[-6300.0,4840.0],[-6360.0,4790.0],[-6390.0,4720.0],[-6470.0,4650.0],[-6440.0,4620.0],[-6450.0,4560.0],[-6480.0,4500.0],[-6520.0,4430.0],[-6640.0,4340.0],[-6760.0,4270.0],[-7060.0,3890.0],[-7150.0,3770.0],[-7290.0,3720.0],[-7460.0,3690.0],[-7640.0,3630.0],[-7730.0,3570.0],[-7740.0,3480.0],[-7810.0,3400.0],[-7800.0,3360.0],[-7840.0,3270.0],[-7790.0,3100.0],[-7730.0,2990.0],[-7690.0,2940.0],[-7650.0,2860.0],[-7580.0,2800.0],[-7480.0,2790.0],[-7350.0,2850.0],[-7280.0,2960.0],[-7220.0,3030.0],[-7130.0,3100.0],[-7060.0,3180.0],[-7010.0,3270.0],[-6960.0,3310.0],[-6860.0,3310.0],[-6800.0,3280.0],[-6710.0,3280.0],[-6660.0,3250.0],[-6670.0,3180.0],[-6690.0,3120.0],[-6730.0,3070.0],[-6700.0,2990.0]]],"type": "Polygon"}},
    {"type": "Feature","id": 16,"properties": {"admin_level": 10,"boundary": "administrative","county": "Leonard County","county_slug": "leonard","id": 16,"is_in:country": "United States","is_in:county": "Leonard County","is_in:state": "Leonida","layer": 0,"municipality": null,"name": "Black Beach","place": "locality","state": "Leonida","type": "land"},"geometry": {"coordinates": [[[-1480.0,6050.0],[-1430.0,6110.0],[-1400.0,6160.0],[-1380.0,6240.0],[-1230.0,6220.0],[-1090.0,6180.0],[-950.0,6140.0],[-780.0,6070.0],[-650.0,6020.0],[-520.0,6160.0],[-350.0,6350.0],[0.0,6200.0],[250.0,6090.0],[100.0,5610.0],[60.0,5410.0],[30.0,5190.0],[10.0,5080.0],[-110.0,5080.0],[-240.0,5090.0],[-360.0,5190.0],[-460.0,5200.0],[-460.0,5270.0],[-490.0,5320.0],[-590.0,5390.0],[-620.0,5440.0],[-650.0,5440.0],[-690.0,5460.0],[-750.0,5520.0],[-800.0,5590.0],[-840.0,5700.0],[-900.0,5750.0],[-960.0,5800.0],[-1060.0,5950.0],[-1100.0,5980.0],[-1270.0,6020.0],[-1390.0,6020.0],[-1480.0,6050.0]]],"type": "Polygon"}},
    {"type": "Feature","id": 17,"properties": {"admin_level": 10,"boundary": "administrative","county": "Leonard County","county_slug": "leonard","id": 17,"is_in:country": "United States","is_in:county": "Leonard County","is_in:state": "Leonida","layer": 0,"municipality": null,"name": "East Ambrosia","place": "suburb","state": "Leonida","type": "land"},"geometry": {"coordinates": [[[-1590.0,4390.0],[-1510.0,4310.0],[-1460.0,4250.0],[-1390.0,4140.0],[-1350.0,4040.0],[-1340.0,3950.0],[-1340.0,3900.0],[-1300.0,3770.0],[-1270.0,3680.0],[-1250.0,3540.0],[-1250.0,3370.0],[-1270.0,3290.0],[-1300.0,3220.0],[-1410.0,3220.0],[-1610.0,3080.0],[-1720.0,2940.0],[-1770.0,2920.0],[-2070.0,2920.0],[-2160.0,2920.0],[-2100.0,2770.0],[-2580.0,2770.0],[-2770.0,2760.0],[-2780.0,2910.0],[-2780.0,2950.0],[-2550.0,3720.0],[-2500.0,3770.0],[-2440.0,3930.0],[-2430.0,4020.0],[-2360.0,4130.0],[-2260.0,4060.0],[-2130.0,4040.0],[-2040.0,4040.0],[-1910.0,4070.0],[-1870.0,4110.0],[-1800.0,4180.0],[-1720.0,4260.0],[-1650.0,4320.0],[-1590.0,4390.0]]],"type": "Polygon"}},
    {"type": "Feature","id": 20,"properties": {"admin_level": 10,"boundary": "administrative","county": "Leonard County","county_slug": "leonard","id": 20,"is_in:country": "United States","is_in:county": "Leonard County","is_in:state": "Leonida","layer": 0,"municipality": null,"name": "Landfill","place": "locality","state": "Leonida","type": "land"},"geometry": {"coordinates": [[[-2780.0,1690.0],[-2740.0,1670.0],[-2720.0,1740.0],[-2670.0,1680.0],[-2370.0,1520.0],[-2210.0,1430.0],[-2130.0,1440.0],[-2050.0,1490.0],[-1810.0,1670.0],[-1640.0,1770.0],[-1480.0,1820.0],[-1350.0,1830.0],[-1180.0,1840.0],[-1120.0,1900.0],[-1020.0,1950.0],[-910.0,2000.0],[-850.0,2040.0],[-820.0,2110.0],[-1260.0,2310.0],[-1780.0,2510.0],[-1860.0,2570.0],[-2060.0,2650.0],[-2100.0,2770.0],[-2580.0,2770.0],[-2770.0,2760.0],[-2780.0,1690.0]]],"type": "Polygon"}},
    {"type": "Feature","id": 21,"properties": {"admin_level": 10,"boundary": "administrative","county": "Leonard County","county_slug": "leonard","id": 21,"is_in:country": "United States","is_in:county": "Leonard County","is_in:state": "Leonida","layer": 0,"municipality": null,"name": "Leaonard County Barrier Island","place": "island","state": "Leonida","type": "land"},"geometry": {"coordinates": [[[590.0,5310.0],[680.0,5740.0],[780.0,6000.0],[1030.0,6270.0],[650.0,6780.0],[410.0,6680.0],[250.0,6380.0],[250.0,6090.0],[100.0,5610.0],[60.0,5410.0],[30.0,5190.0],[160.0,5210.0],[350.0,5230.0],[590.0,5310.0]]],"type": "Polygon"}},
    {"type": "Feature","id": 22,"properties": {"admin_level": 10,"boundary": "administrative","county": "Leonard County","county_slug": "leonard","id": 22,"is_in:country": "United States","is_in:county": "Leonard County","is_in:state": "Leonida","layer": 0,"municipality": null,"name": "Leonida Zoo","place": "locality","state": "Leonida","type": "land"},"geometry": {"coordinates": [[[-1710.0,5600.0],[-1630.0,5530.0],[-1570.0,5460.0],[-1500.0,5380.0],[-1440.0,5310.0],[-1390.0,5210.0],[-1340.0,5120.0],[-1260.0,5080.0],[-1210.0,5020.0],[-1160.0,4840.0],[-1030.0,4870.0],[-970.0,4870.0],[-870.0,4840.0],[-810.0,4840.0],[-570.0,4900.0],[-510.0,4910.0],[-480.0,4950.0],[-460.0,5200.0],[-460.0,5270.0],[-490.0,5320.0],[-590.0,5390.0],[-620.0,5440.0],[-650.0,5440.0],[-690.0,5460.0],[-750.0,5520.0],[-800.0,5590.0],[-840.0,5700.0],[-900.0,5750.0],[-960.0,5800.0],[-1060.0,5950.0],[-1100.0,5980.0],[-1270.0,6020.0],[-1390.0,6020.0],[-1480.0,6050.0],[-1590.0,6000.0],[-1650.0,5890.0],[-1690.0,5770.0],[-1710.0,5600.0]]],"type": "Polygon"}},
    {"type": "Feature","id": 23,"properties": {"admin_level": 10,"boundary": "administrative","county": "Leonard County","county_slug": "leonard","id": 23,"is_in:country": "United States","is_in:county": "Leonard County","is_in:state": "Leonida","layer": 0,"municipality": null,"name": "North Beaches","place": "locality","state": "Leonida","type": "land"},"geometry": {"coordinates": [[[740.0,3160.0],[860.0,3220.0],[1060.0,3340.0],[1200.0,3340.0],[1200.0,3470.0],[1050.0,3590.0],[740.0,4250.0],[540.0,4890.0],[590.0,5310.0],[350.0,5230.0],[160.0,5210.0],[30.0,5190.0],[10.0,5080.0],[100.0,4870.0],[130.0,4590.0],[200.0,4310.0],[370.0,3910.0],[450.0,3710.0],[580.0,3610.0],[560.0,3480.0],[540.0,3310.0],[490.0,3130.0],[610.0,3150.0],[740.0,3160.0]]],"type": "Polygon"}},
    {"type": "Feature","id": 24,"properties": {"admin_level": 10,"boundary": "administrative","county": "Leonard County","county_slug": "leonard","id": 24,"is_in:country": "United States","is_in:county": "Leonard County","is_in:state": "Leonida","layer": 0,"municipality": null,"name": "Oceanside","place": "locality","state": "Leonida","type": "land"},"geometry": {"coordinates": [[[-710.0,3140.0],[-750.0,2970.0],[-750.0,2880.0],[-750.0,2370.0],[-760.0,2300.0],[-790.0,2200.0],[-820.0,2110.0],[-730.0,2080.0],[-630.0,2280.0],[-490.0,2350.0],[-340.0,2370.0],[-120.0,2390.0],[-30.0,2430.0],[70.0,2450.0],[160.0,2650.0],[270.0,2810.0],[380.0,2920.0],[370.0,3040.0],[230.0,3060.0],[40.0,3250.0],[-180.0,3450.0],[-210.0,3360.0],[-250.0,3270.0],[-310.0,3220.0],[-400.0,3170.0],[-480.0,3140.0],[-710.0,3140.0]]],"type": "Polygon"}},
    {"type": "Feature","id": 25,"properties": {"admin_level": 10,"boundary": "administrative","county": "Leonard County","county_slug": "leonard","id": 25,"is_in:country": "United States","is_in:county": "Leonard County","is_in:state": "Leonida","layer": 0,"municipality": null,"name": "Riverside","place": "locality","state": "Leonida","type": "land"},"geometry": {"coordinates": [[[-2780.0,1690.0],[-2770.0,1530.0],[-2770.0,1340.0],[-2400.0,980.0],[-1980.0,1080.0],[-1920.0,1060.0],[-1910.0,1100.0],[-1680.0,1210.0],[-1550.0,1290.0],[-1420.0,1350.0],[-1290.0,1450.0],[-1210.0,1600.0],[-940.0,1780.0],[-800.0,1920.0],[-730.0,2080.0],[-820.0,2110.0],[-850.0,2040.0],[-910.0,2000.0],[-1020.0,1950.0],[-1120.0,1900.0],[-1180.0,1840.0],[-1350.0,1830.0],[-1480.0,1820.0],[-1640.0,1770.0],[-1810.0,1670.0],[-2050.0,1490.0],[-2130.0,1440.0],[-2210.0,1430.0],[-2370.0,1520.0],[-2670.0,1680.0],[-2720.0,1740.0],[-2740.0,1670.0],[-2780.0,1690.0]]],"type": "Polygon"}},
    {"type": "Feature","id": 26,"properties": {"admin_level": 10,"boundary": "administrative","county": "Leonard County","county_slug": "leonard","id": 26,"is_in:country": "United States","is_in:county": "Leonard County","is_in:state": "Leonida","layer": 0,"municipality": "Belville","name": "Belville","place": "locality","state": "Leonida","type": "land"},"geometry": {"coordinates": [[[-2070.0,2920.0],[-1770.0,2920.0],[-1720.0,2940.0],[-1610.0,3080.0],[-1410.0,3220.0],[-1300.0,3220.0],[-1060.0,3220.0],[-1010.0,3200.0],[-960.0,3160.0],[-910.0,3140.0],[-710.0,3140.0],[-750.0,2970.0],[-750.0,2880.0],[-750.0,2370.0],[-760.0,2300.0],[-790.0,2200.0],[-820.0,2110.0],[-1260.0,2310.0],[-1780.0,2510.0],[-1860.0,2570.0],[-2060.0,2650.0],[-2100.0,2770.0],[-2160.0,2920.0],[-2070.0,2920.0]]],"type": "Polygon"}},
    {"type": "Feature","id": 27,"properties": {"admin_level": 10,"boundary": "administrative","county": "Leonard County","county_slug": "leonard","id": 27,"is_in:country": "United States","is_in:county": "Leonard County","is_in:state": "Leonida","layer": 0,"municipality": "Waning Sands","name": "Waning Sands","place": "locality","state": "Leonida","type": "land"},"geometry": {"coordinates": [[[-1410.0,4940.0],[-1420.0,4790.0],[-1450.0,4650.0],[-1150.0,4610.0],[-970.0,4470.0],[-750.0,4190.0],[-680.0,4050.0],[-600.0,3940.0],[-360.0,3620.0],[-180.0,3450.0],[40.0,3250.0],[230.0,3060.0],[370.0,3040.0],[490.0,3130.0],[540.0,3310.0],[560.0,3480.0],[580.0,3610.0],[450.0,3710.0],[370.0,3910.0],[200.0,4310.0],[130.0,4590.0],[100.0,4870.0],[10.0,5080.0],[-110.0,5080.0],[-240.0,5090.0],[-360.0,5190.0],[-460.0,5200.0],[-480.0,4950.0],[-510.0,4910.0],[-570.0,4900.0],[-810.0,4840.0],[-870.0,4840.0],[-970.0,4870.0],[-1030.0,4870.0],[-1160.0,4840.0],[-1210.0,5020.0],[-1260.0,5080.0],[-1340.0,5120.0],[-1430.0,5120.0],[-1410.0,5030.0],[-1410.0,4940.0]]],"type": "Polygon"}},
    {"type": "Feature","id": 28,"properties": {"admin_level": 10,"boundary": "administrative","county": "Lummox County","county_slug": "lummox","id": 28,"is_in:country": "United States","is_in:county": "Lummox County","is_in:state": "Leonida","layer": 0,"municipality": null,"name": "Domed Hills","place": "locality","state": "Leonida","type": "land"},"geometry": {"coordinates": [[[-5090.0,5910.0],[-5020.0,5850.0],[-4960.0,5740.0],[-4850.0,5650.0],[-4750.0,5650.0],[-4600.0,5720.0],[-4340.0,5920.0],[-4270.0,5940.0],[-4170.0,5950.0],[-4070.0,5940.0],[-3990.0,5920.0],[-3950.0,5940.0],[-3900.0,5930.0],[-3870.0,6030.0],[-3870.0,6100.0],[-3870.0,6200.0],[-3910.0,6310.0],[-3910.0,6390.0],[-3910.0,6540.0],[-3940.0,6590.0],[-3920.0,6650.0],[-3910.0,6740.0],[-3870.0,6780.0],[-3860.0,6830.0],[-3810.0,6910.0],[-3800.0,6970.0],[-3830.0,7030.0],[-3910.0,7040.0],[-3970.0,7020.0],[-4030.0,7030.0],[-4340.0,7100.0],[-4480.0,7110.0],[-4550.0,7100.0],[-4630.0,7040.0],[-4750.0,6880.0],[-4890.0,6650.0],[-5020.0,6400.0],[-5080.0,6260.0],[-5090.0,6150.0],[-5100.0,6030.0],[-5090.0,5910.0]]],"type": "Polygon"}},
    {"type": "Feature","id": 29,"properties": {"admin_level": 10,"boundary": "administrative","county": "Lummox County","county_slug": "lummox","id": 29,"is_in:country": "United States","is_in:county": "Lummox County","is_in:state": "Leonida","layer": 0,"municipality": null,"name": "Lummox County Barrier Islands","place": "islet","state": "Leonida","type": "land"},"geometry": {"coordinates": [[[-4760.0,7730.0],[-4620.0,7940.0],[-4530.0,8290.0],[-4200.0,8670.0],[-3960.0,8760.0],[-4000.0,9570.0],[-4460.0,9630.0],[-5010.0,9340.0],[-5500.0,8730.0],[-5880.0,8460.0],[-6240.0,8030.0],[-6810.0,6970.0],[-7000.0,6270.0],[-7380.0,5950.0],[-8390.0,5810.0],[-8650.0,5460.0],[-8600.0,5270.0],[-8080.0,5410.0],[-7820.0,5550.0],[-7380.0,5580.0],[-6890.0,5580.0],[-6310.0,5680.0],[-6170.0,5990.0],[-6130.0,6350.0],[-6010.0,6670.0],[-5610.0,7070.0],[-5290.0,7280.0],[-4980.0,7330.0],[-4890.0,7450.0],[-4870.0,7690.0],[-4760.0,7730.0]]],"type": "Polygon"}},
    {"type": "Feature","id": 30,"properties": {"admin_level": 10,"boundary": "administrative","county": "Lummox County","county_slug": "lummox","id": 30,"is_in:country": "United States","is_in:county": "Lummox County","is_in:state": "Leonida","layer": 0,"municipality": null,"name": "Mount Kalaga","place": "locality","state": "Leonida","type": "land"},"geometry": {"coordinates": [[[-3900.0,5930.0],[-3860.0,5910.0],[-3800.0,5840.0],[-3740.0,5810.0],[-3670.0,5820.0],[-3580.0,5860.0],[-3470.0,5880.0],[-3380.0,5870.0],[-3270.0,5840.0],[-3050.0,5770.0],[-2810.0,5720.0],[-2750.0,5720.0],[-2720.0,5750.0],[-2760.0,5790.0],[-2750.0,5820.0],[-2770.0,5840.0],[-2750.0,5900.0],[-2770.0,5920.0],[-2810.0,5940.0],[-2860.0,6010.0],[-2890.0,6070.0],[-2900.0,6110.0],[-2850.0,6200.0],[-2860.0,6250.0],[-2870.0,6300.0],[-2870.0,6340.0],[-2880.0,6370.0],[-2840.0,6380.0],[-2820.0,6380.0],[-2790.0,6360.0],[-2770.0,6360.0],[-2750.0,6380.0],[-2740.0,6400.0],[-2720.0,6410.0],[-2740.0,6440.0],[-2750.0,6470.0],[-2780.0,6480.0],[-2800.0,6510.0],[-2830.0,6510.0],[-2860.0,6550.0],[-2890.0,6560.0],[-2920.0,6560.0],[-2930.0,6590.0],[-2960.0,6590.0],[-2980.0,6610.0],[-2930.0,6650.0],[-2920.0,6680.0],[-2950.0,6740.0],[-2940.0,6760.0],[-2960.0,6790.0],[-3020.0,6810.0],[-3050.0,6850.0],[-2970.0,6870.0],[-3160.0,7040.0],[-3220.0,7090.0],[-3270.0,7100.0],[-3320.0,7060.0],[-3320.0,7010.0],[-3310.0,6950.0],[-3320.0,6870.0],[-3350.0,6820.0],[-3390.0,6810.0],[-3460.0,6830.0],[-3510.0,6830.0],[-3560.0,6820.0],[-3570.0,6780.0],[-3570.0,6740.0],[-3590.0,6700.0],[-3620.0,6690.0],[-3670.0,6720.0],[-3670.0,6760.0],[-3650.0,6820.0],[-3690.0,6860.0],[-3730.0,6860.0],[-3760.0,6830.0],[-3800.0,6760.0],[-3850.0,6750.0],[-3870.0,6780.0],[-3910.0,6740.0],[-3920.0,6650.0],[-3940.0,6590.0],[-3910.0,6540.0],[-3910.0,6390.0],[-3910.0,6310.0],[-3870.0,6200.0],[-3870.0,6100.0],[-3870.0,6030.0],[-3900.0,5930.0]]],"type": "Polygon"}},
    {"type": "Feature","id": 31,"properties": {"admin_level": 10,"boundary": "administrative","county": "Lummox County","county_slug": "lummox","id": 31,"is_in:country": "United States","is_in:county": "Lummox County","is_in:state": "Leonida","layer": 0,"leisure": "nature_reserve","municipality": null,"name": "Mount Kalaga National Park","place": "locality","state": "Leonida","type": "land"},"geometry": {"coordinates": [[[-2000.0,7700.0],[-2030.0,7670.0],[-2090.0,7690.0],[-2170.0,7690.0],[-2230.0,7660.0],[-2270.0,7650.0],[-2310.0,7640.0],[-2350.0,7630.0],[-2390.0,7620.0],[-2430.0,7540.0],[-2470.0,7500.0],[-2460.0,7480.0],[-2470.0,7450.0],[-2490.0,7430.0],[-2530.0,7410.0],[-2560.0,7380.0],[-2580.0,7360.0],[-2620.0,7340.0],[-2660.0,7330.0],[-2670.0,7310.0],[-2710.0,7290.0],[-2730.0,7270.0],[-2740.0,7240.0],[-2740.0,7200.0],[-2770.0,7190.0],[-2780.0,7160.0],[-2760.0,7120.0],[-2790.0,7060.0],[-2770.0,7040.0],[-2760.0,6990.0],[-2810.0,6950.0],[-2810.0,6910.0],[-2840.0,6890.0],[-2970.0,6870.0],[-3050.0,6850.0],[-3020.0,6810.0],[-2960.0,6790.0],[-2940.0,6760.0],[-2950.0,6740.0],[-2920.0,6680.0],[-2930.0,6650.0],[-2980.0,6610.0],[-2960.0,6590.0],[-2930.0,6590.0],[-2920.0,6560.0],[-2890.0,6560.0],[-2860.0,6550.0],[-2830.0,6510.0],[-2800.0,6510.0],[-2780.0,6480.0],[-2750.0,6470.0],[-2740.0,6440.0],[-2720.0,6410.0],[-2680.0,6410.0],[-2630.0,6400.0],[-2600.0,6410.0],[-2560.0,6400.0],[-2530.0,6420.0],[-2520.0,6440.0],[-2500.0,6460.0],[-2460.0,6480.0],[-2450.0,6460.0],[-2430.0,6440.0],[-2410.0,6410.0],[-2380.0,6390.0],[-2360.0,6350.0],[-2310.0,6330.0],[-2300.0,6300.0],[-2290.0,6270.0],[-2250.0,6240.0],[-2160.0,6190.0],[-2060.0,6190.0],[-2040.0,6180.0],[-2000.0,6170.0],[-1960.0,6180.0],[-1890.0,6130.0],[-1870.0,6100.0],[-1810.0,6150.0],[-1700.0,6200.0],[-1560.0,6230.0],[-1380.0,6240.0],[-1390.0,6290.0],[-1350.0,6460.0],[-1290.0,6570.0],[-1140.0,6700.0],[-1070.0,6800.0],[-1050.0,6870.0],[-1040.0,6960.0],[-1060.0,7140.0],[-1070.0,7210.0],[-1090.0,7250.0],[-1170.0,7300.0],[-1240.0,7320.0],[-1380.0,7350.0],[-1500.0,7390.0],[-1610.0,7460.0],[-1720.0,7560.0],[-1760.0,7610.0],[-1830.0,7640.0],[-1920.0,7680.0],[-2000.0,7700.0]]],"type": "Polygon"}},
    {"type": "Feature","id": 32,"properties": {"admin_level": 10,"boundary": "administrative","county": "Lummox County","county_slug": "lummox","id": 32,"is_in:country": "United States","is_in:county": "Lummox County","is_in:state": "Leonida","layer": 0,"municipality": null,"name": "Mount Leonida","place": "locality","state": "Leonida","type": "land"},"geometry": {"coordinates": [[[-1870.0,6100.0],[-1890.0,6130.0],[-1960.0,6180.0],[-2000.0,6170.0],[-2040.0,6180.0],[-2060.0,6190.0],[-2160.0,6190.0],[-2250.0,6240.0],[-2290.0,6270.0],[-2300.0,6300.0],[-2310.0,6330.0],[-2360.0,6350.0],[-2380.0,6390.0],[-2410.0,6410.0],[-2430.0,6440.0],[-2450.0,6460.0],[-2460.0,6480.0],[-2500.0,6460.0],[-2520.0,6440.0],[-2530.0,6420.0],[-2560.0,6400.0],[-2600.0,6410.0],[-2630.0,6400.0],[-2680.0,6410.0],[-2720.0,6410.0],[-2740.0,6400.0],[-2750.0,6380.0],[-2770.0,6360.0],[-2790.0,6360.0],[-2820.0,6380.0],[-2840.0,6380.0],[-2880.0,6370.0],[-2870.0,6340.0],[-2870.0,6300.0],[-2860.0,6250.0],[-2850.0,6200.0],[-2900.0,6110.0],[-2890.0,6070.0],[-2860.0,6010.0],[-2810.0,5940.0],[-2770.0,5920.0],[-2750.0,5900.0],[-2770.0,5840.0],[-2750.0,5820.0],[-2760.0,5790.0],[-2720.0,5750.0],[-2750.0,5720.0],[-2670.0,5710.0],[-2550.0,5710.0],[-2410.0,5720.0],[-2280.0,5740.0],[-2140.0,5780.0],[-2050.0,5820.0],[-1990.0,5880.0],[-1930.0,6000.0],[-1870.0,6100.0]]],"type": "Polygon"}},
    {"type": "Feature","id": 33,"properties": {"admin_level": 10,"boundary": "administrative","county": "Lummox County","county_slug": "lummox","id": 33,"is_in:country": "United States","is_in:county": "Lummox County","is_in:state": "Leonida","layer": 0,"municipality": null,"name": "North Cape","place": "locality","state": "Leonida","type": "land"},"geometry": {"coordinates": [[[-3270.0,7820.0],[-3240.0,7930.0],[-3130.0,7960.0],[-3060.0,8050.0],[-3090.0,8190.0],[-3040.0,8250.0],[-3090.0,8420.0],[-3150.0,8410.0],[-3220.0,8430.0],[-3350.0,8530.0],[-3420.0,8500.0],[-3710.0,8670.0],[-3960.0,8760.0],[-4200.0,8670.0],[-4530.0,8290.0],[-4620.0,7940.0],[-4760.0,7730.0],[-4700.0,7580.0],[-4610.0,7530.0],[-4580.0,7590.0],[-4540.0,7610.0],[-4420.0,7600.0],[-4390.0,7650.0],[-4370.0,7680.0],[-4100.0,7690.0],[-3990.0,7690.0],[-3920.0,7640.0],[-3800.0,7630.0],[-3740.0,7690.0],[-3670.0,7740.0],[-3670.0,7810.0],[-3700.0,7880.0],[-3700.0,8030.0],[-3590.0,8020.0],[-3450.0,7960.0],[-3390.0,7870.0],[-3320.0,7860.0],[-3270.0,7820.0]]],"type": "Polygon"}},
    {"type": "Feature","id": 34,"properties": {"admin_level": 10,"boundary": "administrative","county": "Lummox County","county_slug": "lummox","id": 34,"is_in:country": "United States","is_in:county": "Lummox County","is_in:state": "Leonida","layer": 0,"municipality": null,"name": "North Coast","place": "locality","state": "Leonida","type": "land"},"geometry": {"coordinates": [[[-2930.0,7740.0],[-2780.0,7770.0],[-2600.0,7850.0],[-2500.0,7880.0],[-2440.0,7870.0],[-2330.0,7800.0],[-2230.0,7740.0],[-2000.0,7700.0],[-1920.0,7680.0],[-1830.0,7640.0],[-1760.0,7610.0],[-1720.0,7560.0],[-1610.0,7460.0],[-1500.0,7390.0],[-1380.0,7350.0],[-1240.0,7320.0],[-1170.0,7300.0],[-1090.0,7250.0],[-1070.0,7210.0],[-650.0,7210.0],[-740.0,7330.0],[-800.0,7500.0],[-950.0,7670.0],[-1100.0,7740.0],[-1240.0,7720.0],[-1350.0,7770.0],[-1510.0,7770.0],[-1620.0,7820.0],[-1630.0,7860.0],[-1660.0,7860.0],[-1720.0,7830.0],[-1750.0,7850.0],[-1760.0,7910.0],[-1800.0,7950.0],[-1810.0,8010.0],[-1840.0,8060.0],[-1950.0,8110.0],[-2040.0,8020.0],[-2090.0,8010.0],[-2180.0,8070.0],[-2240.0,8130.0],[-2350.0,8140.0],[-2400.0,8220.0],[-2550.0,8240.0],[-2780.0,8240.0],[-2930.0,8090.0],[-3060.0,8050.0],[-3130.0,7960.0],[-3240.0,7930.0],[-3270.0,7820.0],[-3070.0,7790.0],[-2930.0,7740.0]]],"type": "Polygon"}},
    {"type": "Feature","id": 35,"properties": {"admin_level": 10,"boundary": "administrative","county": "Lummox County","county_slug": "lummox","id": 35,"is_in:country": "United States","is_in:county": "Lummox County","is_in:state": "Leonida","layer": 0,"municipality": null,"name": "Northern Islands","place": "islet","state": "Leonida","type": "land"},"geometry": {"coordinates": [[[-4000.0,9570.0],[-3350.0,9500.0],[-2850.0,9350.0],[-2480.0,9380.0],[-2120.0,9490.0],[-1970.0,9480.0],[-1570.0,9230.0],[-1390.0,8890.0],[-1130.0,8710.0],[-880.0,8470.0],[-960.0,7990.0],[-950.0,7670.0],[-1100.0,7740.0],[-1240.0,7720.0],[-1350.0,7770.0],[-1510.0,7770.0],[-1620.0,7820.0],[-1630.0,7860.0],[-1660.0,7860.0],[-1720.0,7830.0],[-1750.0,7850.0],[-1760.0,7910.0],[-1800.0,7950.0],[-1810.0,8010.0],[-1840.0,8060.0],[-1950.0,8110.0],[-2040.0,8020.0],[-2090.0,8010.0],[-2180.0,8070.0],[-2240.0,8130.0],[-2350.0,8140.0],[-2400.0,8220.0],[-2550.0,8240.0],[-2780.0,8240.0],[-2930.0,8090.0],[-3060.0,8050.0],[-3090.0,8190.0],[-3040.0,8250.0],[-3090.0,8420.0],[-3150.0,8410.0],[-3220.0,8430.0],[-3350.0,8530.0],[-3420.0,8500.0],[-3710.0,8670.0],[-3960.0,8760.0],[-4000.0,9570.0]]],"type": "Polygon"}},
    {"type": "Feature","id": 36,"properties": {"admin_level": 10,"boundary": "administrative","county": "Lummox County","county_slug": "lummox","id": 36,"is_in:country": "United States","is_in:county": "Lummox County","is_in:state": "Leonida","layer": 0,"municipality": "Redhill","name": "Redhill","place": "locality","state": "Leonida","type": "land"},"geometry": {"coordinates": [[[-3870.0,6780.0],[-3850.0,6750.0],[-3800.0,6760.0],[-3760.0,6830.0],[-3730.0,6860.0],[-3690.0,6860.0],[-3650.0,6820.0],[-3670.0,6760.0],[-3670.0,6720.0],[-3620.0,6690.0],[-3590.0,6700.0],[-3570.0,6740.0],[-3570.0,6780.0],[-3560.0,6820.0],[-3510.0,6830.0],[-3460.0,6830.0],[-3390.0,6810.0],[-3350.0,6820.0],[-3320.0,6870.0],[-3310.0,6950.0],[-3320.0,7010.0],[-3320.0,7060.0],[-3270.0,7100.0],[-3220.0,7090.0],[-3160.0,7040.0],[-2970.0,6870.0],[-2840.0,6890.0],[-2810.0,6910.0],[-2810.0,6950.0],[-2760.0,6990.0],[-2770.0,7040.0],[-2790.0,7060.0],[-2760.0,7120.0],[-2780.0,7160.0],[-2770.0,7190.0],[-2740.0,7200.0],[-2740.0,7240.0],[-2730.0,7270.0],[-2710.0,7290.0],[-2670.0,7310.0],[-2660.0,7330.0],[-2620.0,7340.0],[-2580.0,7360.0],[-2560.0,7380.0],[-2530.0,7410.0],[-2490.0,7430.0],[-2470.0,7450.0],[-2460.0,7480.0],[-2470.0,7500.0],[-2430.0,7540.0],[-2390.0,7620.0],[-2350.0,7630.0],[-2310.0,7640.0],[-2270.0,7650.0],[-2230.0,7660.0],[-2170.0,7690.0],[-2090.0,7690.0],[-2030.0,7670.0],[-2000.0,7700.0],[-2230.0,7740.0],[-2330.0,7800.0],[-2440.0,7870.0],[-2500.0,7880.0],[-2600.0,7850.0],[-2780.0,7770.0],[-2930.0,7740.0],[-3070.0,7790.0],[-3270.0,7820.0],[-3320.0,7860.0],[-3390.0,7870.0],[-3450.0,7960.0],[-3590.0,8020.0],[-3700.0,8030.0],[-3700.0,7880.0],[-3670.0,7810.0],[-3670.0,7740.0],[-3740.0,7690.0],[-3800.0,7630.0],[-3920.0,7640.0],[-3990.0,7690.0],[-4100.0,7690.0],[-4370.0,7680.0],[-4390.0,7650.0],[-4420.0,7600.0],[-4540.0,7610.0],[-4580.0,7590.0],[-4610.0,7530.0],[-4560.0,7460.0],[-4470.0,7440.0],[-4410.0,7400.0],[-4390.0,7350.0],[-4400.0,7270.0],[-4390.0,7220.0],[-4370.0,7140.0],[-4340.0,7100.0],[-4030.0,7030.0],[-3970.0,7020.0],[-3910.0,7040.0],[-3830.0,7030.0],[-3800.0,6970.0],[-3810.0,6910.0],[-3860.0,6830.0],[-3870.0,6780.0]]],"type": "Polygon"}},
    {"type": "Feature","id": 37,"properties": {"admin_level": 10,"boundary": "administrative","county": "Lummox County","county_slug": "lummox","id": 37,"is_in:country": "United States","is_in:county": "Lummox County","is_in:state": "Leonida","layer": 0,"municipality": "St. Joseph","name": "St. Joseph","place": "locality","state": "Leonida","type": "land"},"geometry": {"coordinates": [[[-1070.0,7210.0],[-650.0,7210.0],[-620.0,6970.0],[-620.0,6820.0],[-460.0,6670.0],[-340.0,6570.0],[-350.0,6350.0],[-520.0,6160.0],[-650.0,6020.0],[-780.0,6070.0],[-950.0,6140.0],[-1090.0,6180.0],[-1230.0,6220.0],[-1380.0,6240.0],[-1390.0,6290.0],[-1350.0,6460.0],[-1290.0,6570.0],[-1140.0,6700.0],[-1070.0,6800.0],[-1050.0,6870.0],[-1040.0,6960.0],[-1060.0,7140.0],[-1070.0,7210.0]]],"type": "Polygon"}},
    {"type": "Feature","id": 38,"properties": {"admin_level": 10,"boundary": "administrative","county": "Lummox County","county_slug": "lummox","id": 38,"is_in:country": "United States","is_in:county": "Lummox County","is_in:state": "Leonida","layer": 0,"municipality": "Yorktown","name": "Yorktown","place": "locality","state": "Leonida","type": "land"},"geometry": {"coordinates": [[[-4610.0,7530.0],[-4700.0,7580.0],[-4760.0,7730.0],[-4870.0,7690.0],[-4890.0,7450.0],[-4980.0,7330.0],[-5290.0,7280.0],[-5610.0,7070.0],[-6010.0,6670.0],[-6130.0,6350.0],[-6170.0,5990.0],[-6310.0,5680.0],[-5930.0,5550.0],[-5740.0,5770.0],[-5650.0,5910.0],[-5440.0,5980.0],[-5260.0,5980.0],[-5160.0,5950.0],[-5090.0,5910.0],[-5100.0,6030.0],[-5090.0,6150.0],[-5080.0,6260.0],[-5020.0,6400.0],[-4890.0,6650.0],[-4750.0,6880.0],[-4630.0,7040.0],[-4550.0,7100.0],[-4480.0,7110.0],[-4340.0,7100.0],[-4370.0,7140.0],[-4390.0,7220.0],[-4400.0,7270.0],[-4390.0,7350.0],[-4410.0,7400.0],[-4470.0,7440.0],[-4560.0,7460.0],[-4610.0,7530.0]]],"type": "Polygon"}},
    {"type": "Feature","id": 39,"properties": {"admin_level": 10,"boundary": "administrative","county": "Mariana County","county_slug": "mariana","id": 39,"is_in:country": "United States","is_in:county": "Mariana County","is_in:state": "Leonida","layer": 0,"municipality": null,"name": "Airward Key","place": "island","state": "Leonida","type": "land"},"geometry": {"coordinates": [[[-3800.0,-6820.0],[-3920.0,-6950.0],[-4010.0,-7040.0],[-4210.0,-7040.0],[-4220.0,-6960.0],[-4130.0,-6790.0],[-4210.0,-6650.0],[-4400.0,-6630.0],[-4590.0,-6700.0],[-4640.0,-6890.0],[-4710.0,-7030.0],[-5080.0,-6970.0],[-5480.0,-6900.0],[-5810.0,-7230.0],[-5380.0,-7600.0],[-4990.0,-7540.0],[-4740.0,-7570.0],[-4110.0,-7760.0],[-3570.0,-7210.0],[-3800.0,-6820.0]]],"type": "Polygon"}},
    {"type": "Feature","id": 40,"properties": {"admin_level": 10,"boundary": "administrative","county": "Mariana County","county_slug": "mariana","id": 40,"is_in:country": "United States","is_in:county": "Mariana County","is_in:state": "Leonida","layer": 0,"municipality": null,"name": "East Key","place": "island","state": "Leonida","type": "land"},"geometry": {"coordinates": [[[-950.0,-3720.0],[-920.0,-3810.0],[-780.0,-3850.0],[-890.0,-4440.0],[-1260.0,-4800.0],[-1600.0,-5320.0],[-2000.0,-4940.0],[-1820.0,-4750.0],[-1590.0,-4650.0],[-1310.0,-4310.0],[-1330.0,-4210.0],[-950.0,-3720.0]]],"type": "Polygon"}},
    {"type": "Feature","id": 41,"properties": {"admin_level": 10,"boundary": "administrative","county": "Mariana County","county_slug": "mariana","id": 41,"is_in:country": "United States","is_in:county": "Mariana County","is_in:state": "Leonida","layer": 0,"municipality": null,"name": "Eastern Keys","place": "island","state": "Leonida","type": "land"},"geometry": {"coordinates": [[[-950.0,-3720.0],[-920.0,-3810.0],[-780.0,-3850.0],[-500.0,-3450.0],[-500.0,-3220.0],[-340.0,-2980.0],[-450.0,-2860.0],[-600.0,-2970.0],[-880.0,-3300.0],[-950.0,-3720.0]]],"type": "Polygon"}},
    {"type": "Feature","id": 42,"properties": {"admin_level": 10,"boundary": "administrative","county": "Mariana County","county_slug": "mariana","id": 42,"is_in:country": "United States","is_in:county": "Mariana County","is_in:state": "Leonida","layer": 0,"municipality": null,"name": "Goliath","place": "locality","state": "Leonida","type": "land"},"geometry": {"coordinates": [[[-3310.0,-1180.0],[-3370.0,-1290.0],[-3410.0,-1440.0],[-3560.0,-1660.0],[-3890.0,-2160.0],[-4010.0,-2330.0],[-4250.0,-2160.0],[-4320.0,-2070.0],[-4390.0,-1960.0],[-4480.0,-1780.0],[-4610.0,-1610.0],[-4760.0,-1530.0],[-5140.0,-1510.0],[-5370.0,-1470.0],[-5600.0,-1370.0],[-5760.0,-1260.0],[-5900.0,-1120.0],[-6210.0,-700.0],[-6080.0,-600.0],[-6070.0,-520.0],[-6060.0,-450.0],[-6030.0,-380.0],[-5910.0,-190.0],[-5860.0,-150.0],[-5830.0,-140.0],[-5710.0,-140.0],[-5670.0,-120.0],[-5660.0,-60.0],[-5130.0,-60.0],[-5070.0,-40.0],[-5030.0,20.0],[-4890.0,-80.0],[-4290.0,-500.0],[-4070.0,-630.0],[-3920.0,-690.0],[-3740.0,-760.0],[-3620.0,-910.0],[-3430.0,-1100.0],[-3310.0,-1180.0]]],"type": "Polygon"}},
    {"type": "Feature","id": 43,"properties": {"admin_level": 10,"boundary": "administrative","county": "Mariana County","county_slug": "mariana","id": 43,"is_in:country": "United States","is_in:county": "Mariana County","is_in:state": "Leonida","layer": 0,"municipality": null,"name": "Goose Key","place": "island","state": "Leonida","type": "land"},"geometry": {"coordinates": [[[-5480.0,-6900.0],[-5760.0,-6870.0],[-6030.0,-6810.0],[-6180.0,-6710.0],[-6190.0,-6470.0],[-6620.0,-5680.0],[-6990.0,-5590.0],[-7270.0,-5880.0],[-7530.0,-6210.0],[-7570.0,-6490.0],[-7660.0,-6680.0],[-7820.0,-6950.0],[-8070.0,-7150.0],[-7810.0,-7470.0],[-6690.0,-7470.0],[-6480.0,-7350.0],[-6340.0,-7160.0],[-6100.0,-7100.0],[-5810.0,-7230.0],[-5480.0,-6900.0]]],"type": "Polygon"}},
    {"type": "Feature","id": 44,"properties": {"admin_level": 10,"boundary": "administrative","county": "Mariana County","county_slug": "mariana","id": 44,"is_in:country": "United States","is_in:county": "Mariana County","is_in:state": "Leonida","layer": 0,"municipality": null,"name": "Grassrivers","place": "locality","state": "Leonida","type": "land"},"geometry": {"coordinates": [[[-3440.0,-3110.0],[-3730.0,-3140.0],[-4000.0,-3190.0],[-4050.0,-3230.0],[-4160.0,-3270.0],[-4260.0,-3300.0],[-4350.0,-3320.0],[-4530.0,-3320.0],[-4630.0,-3330.0],[-4700.0,-3360.0],[-4700.0,-3420.0],[-4670.0,-3460.0],[-4770.0,-3520.0],[-4810.0,-3560.0],[-4910.0,-3620.0],[-4980.0,-3660.0],[-5050.0,-3710.0],[-5120.0,-3630.0],[-5240.0,-3650.0],[-5290.0,-4000.0],[-5170.0,-4280.0],[-4820.0,-4460.0],[-4730.0,-4690.0],[-4360.0,-4790.0],[-4200.0,-5070.0],[-4010.0,-5240.0],[-3750.0,-5350.0],[-3480.0,-5330.0],[-3360.0,-5380.0],[-3030.0,-5360.0],[-2810.0,-5050.0],[-2800.0,-4920.0],[-2670.0,-4880.0],[-2600.0,-4820.0],[-2490.0,-4790.0],[-2450.0,-4540.0],[-2310.0,-4480.0],[-2270.0,-4390.0],[-2200.0,-4340.0],[-2310.0,-4170.0],[-2420.0,-4310.0],[-2540.0,-4310.0],[-2540.0,-3990.0],[-2730.0,-3910.0],[-2810.0,-3720.0],[-2940.0,-3710.0],[-2990.0,-3670.0],[-3060.0,-3650.0],[-3210.0,-3710.0],[-3280.0,-3710.0],[-3320.0,-3680.0],[-3370.0,-3340.0],[-3390.0,-3240.0],[-3440.0,-3110.0]]],"type": "Polygon"}},
    {"type": "Feature","id": 45,"properties": {"admin_level": 10,"boundary": "administrative","county": "Mariana County","county_slug": "mariana","id": 45,"is_in:country": "United States","is_in:county": "Mariana County","is_in:state": "Leonida","layer": 0,"municipality": null,"name": "Inner Keys","place": "island","state": "Leonida","type": "land"},"geometry": {"coordinates": [[[-4010.0,-5240.0],[-4200.0,-5410.0],[-4000.0,-5710.0],[-3970.0,-6130.0],[-3800.0,-6820.0],[-3450.0,-6610.0],[-3330.0,-6420.0],[-2880.0,-6130.0],[-2810.0,-5960.0],[-2670.0,-5700.0],[-2540.0,-5630.0],[-2340.0,-5410.0],[-2330.0,-5150.0],[-2180.0,-5000.0],[-2000.0,-4940.0],[-1820.0,-4750.0],[-1590.0,-4650.0],[-1310.0,-4310.0],[-1330.0,-4210.0],[-1750.0,-4170.0],[-2310.0,-4170.0],[-2200.0,-4340.0],[-2270.0,-4390.0],[-2310.0,-4480.0],[-2450.0,-4540.0],[-2490.0,-4790.0],[-2600.0,-4820.0],[-2670.0,-4880.0],[-2800.0,-4920.0],[-2810.0,-5050.0],[-3030.0,-5360.0],[-3360.0,-5380.0],[-3480.0,-5330.0],[-3750.0,-5350.0],[-4010.0,-5240.0]]],"type": "Polygon"}},
    {"type": "Feature","id": 46,"properties": {"admin_level": 10,"boundary": "administrative","county": "Mariana County","county_slug": "mariana","id": 46,"is_in:country": "United States","is_in:county": "Mariana County","is_in:state": "Leonida","layer": 0,"municipality": null,"name": "Key West","place": "island","state": "Leonida","type": "land"},"geometry": {"coordinates": [[[-8460.0,-6890.0],[-8100.0,-6300.0],[-7750.0,-5820.0],[-7620.0,-5930.0],[-7530.0,-6210.0],[-7570.0,-6490.0],[-7660.0,-6680.0],[-7820.0,-6950.0],[-8070.0,-7150.0],[-8280.0,-6970.0],[-8460.0,-6890.0]]],"type": "Polygon"}},
    {"type": "Feature","id": 47,"properties": {"admin_level": 10,"boundary": "administrative","county": "Mariana County","county_slug": "mariana","id": 47,"is_in:country": "United States","is_in:county": "Mariana County","is_in:state": "Leonida","layer": 0,"municipality": null,"name": "Outer Keys","place": "island","state": "Leonida","type": "land"},"geometry": {"coordinates": [[[-4110.0,-7760.0],[-3570.0,-7210.0],[-2370.0,-6360.0],[-1600.0,-5320.0],[-1260.0,-4800.0],[-1160.0,-5320.0],[-1610.0,-5940.0],[-1740.0,-6310.0],[-2200.0,-6610.0],[-2470.0,-6970.0],[-2550.0,-7300.0],[-3040.0,-7770.0],[-3300.0,-8180.0],[-3980.0,-8180.0],[-4110.0,-7760.0]]],"type": "Polygon"}},
    {"type": "Feature","id": 48,"properties": {"admin_level": 10,"boundary": "administrative","county": "Mariana County","county_slug": "mariana","id": 48,"is_in:country": "United States","is_in:county": "Mariana County","is_in:state": "Leonida","layer": 0,"municipality": null,"name": "Pantther Key","place": "island","state": "Leonida","type": "land"},"geometry": {"coordinates": [[[-6560.0,-2620.0],[-6370.0,-2730.0],[-6250.0,-2720.0],[-6170.0,-2750.0],[-5760.0,-2970.0],[-5660.0,-2880.0],[-5950.0,-2620.0],[-6060.0,-2490.0],[-6070.0,-2340.0],[-5990.0,-2250.0],[-6120.0,-1980.0],[-6390.0,-1400.0],[-6280.0,-1270.0],[-6300.0,-1130.0],[-6450.0,-780.0],[-6630.0,-580.0],[-6760.0,-550.0],[-7100.0,-400.0],[-7250.0,-370.0],[-7350.0,-470.0],[-7410.0,-540.0],[-7490.0,-580.0],[-7530.0,-660.0],[-7480.0,-800.0],[-7360.0,-870.0],[-7200.0,-870.0],[-6960.0,-970.0],[-6970.0,-1070.0],[-6840.0,-1140.0],[-6730.0,-1260.0],[-6700.0,-1440.0],[-6740.0,-1630.0],[-6790.0,-1810.0],[-6670.0,-1930.0],[-6490.0,-2020.0],[-6410.0,-2190.0],[-6510.0,-2240.0],[-6520.0,-2310.0],[-6590.0,-2410.0],[-6560.0,-2620.0]]],"type": "Polygon"}},
    {"type": "Feature","id": 49,"properties": {"admin_level": 10,"boundary": "administrative","county": "Mariana County","county_slug": "mariana","id": 49,"is_in:country": "United States","is_in:county": "Mariana County","is_in:state": "Leonida","layer": 0,"municipality": null,"name": "Sanibel","place": "locality","state": "Leonida","type": "land"},"geometry": {"coordinates": [[[-9160.0,1250.0],[-9180.0,500.0],[-8970.0,-380.0],[-8670.0,-890.0],[-8210.0,-970.0],[-7810.0,-870.0],[-7530.0,-660.0],[-7490.0,-580.0],[-7410.0,-540.0],[-7350.0,-470.0],[-7250.0,-370.0],[-7400.0,-330.0],[-7700.0,120.0],[-7790.0,440.0],[-7720.0,750.0],[-7420.0,1010.0],[-8010.0,1070.0],[-8500.0,1480.0],[-9160.0,1250.0]]],"type": "Polygon"}},
    {"type": "Feature","id": 50,"properties": {"admin_level": 10,"boundary": "administrative","county": "Mariana County","county_slug": "mariana","id": 50,"is_in:country": "United States","is_in:county": "Mariana County","is_in:state": "Leonida","layer": 0,"municipality": null,"name": "Shark Valley","place": "locality","state": "Leonida","type": "land"},"geometry": {"coordinates": [[[-3440.0,-3110.0],[-3730.0,-3140.0],[-4000.0,-3190.0],[-3950.0,-3050.0],[-3940.0,-2890.0],[-3940.0,-2810.0],[-3970.0,-2690.0],[-4070.0,-2610.0],[-4100.0,-2520.0],[-4080.0,-2440.0],[-4010.0,-2330.0],[-3580.0,-2580.0],[-3480.0,-2660.0],[-3290.0,-2820.0],[-3360.0,-2990.0],[-3450.0,-3060.0],[-3440.0,-3110.0]]],"type": "Polygon"}},
    {"type": "Feature","id": 51,"properties": {"admin_level": 10,"boundary": "administrative","county": "Mariana County","county_slug": "mariana","id": 51,"is_in:country": "United States","is_in:county": "Mariana County","is_in:state": "Leonida","layer": 0,"municipality": null,"name": "Stiltsville","place": "locality","state": "Leonida","type": "land"},"geometry": {"coordinates": [[[140.0,-2860.0],[-100.0,-2860.0],[-340.0,-2980.0],[-500.0,-3220.0],[-500.0,-3450.0],[-430.0,-3630.0],[-230.0,-3630.0],[-170.0,-3450.0],[-60.0,-3400.0],[80.0,-3480.0],[200.0,-3350.0],[170.0,-3160.0],[270.0,-2990.0],[140.0,-2860.0]]],"type": "Polygon"}},
    {"type": "Feature","id": 52,"properties": {"admin_level": 10,"boundary": "administrative","county": "Mariana County","county_slug": "mariana","id": 52,"is_in:country": "United States","is_in:county": "Mariana County","is_in:state": "Leonida","layer": 0,"municipality": null,"name": "West Bluegrass","place": "locality","state": "Leonida","type": "land"},"geometry": {"coordinates": [[[-3290.0,-2820.0],[-3480.0,-2660.0],[-3580.0,-2580.0],[-4010.0,-2330.0],[-3890.0,-2160.0],[-3560.0,-1660.0],[-3410.0,-1440.0],[-3370.0,-1290.0],[-3310.0,-1180.0],[-3240.0,-1230.0],[-3280.0,-1290.0],[-3270.0,-1350.0],[-3080.0,-1520.0],[-3030.0,-1650.0],[-3060.0,-1790.0],[-3220.0,-2080.0],[-3270.0,-2180.0],[-3290.0,-2320.0],[-3170.0,-2390.0],[-3080.0,-2470.0],[-3290.0,-2820.0]]],"type": "Polygon"}},
    {"type": "Feature","id": 53,"properties": {"admin_level": 10,"boundary": "administrative","county": "Mariana County","county_slug": "mariana","id": 53,"is_in:country": "United States","is_in:county": "Mariana County","is_in:state": "Leonida","layer": 0,"municipality": null,"name": "West Coast","place": "locality","state": "Leonida","type": "land"},"geometry": {"coordinates": [[[-4010.0,-2330.0],[-4080.0,-2440.0],[-4100.0,-2520.0],[-4200.0,-2510.0],[-4300.0,-2510.0],[-4380.0,-2470.0],[-4510.0,-2440.0],[-4650.0,-2420.0],[-4710.0,-2420.0],[-4800.0,-2450.0],[-4890.0,-2510.0],[-4950.0,-2610.0],[-4970.0,-2760.0],[-5090.0,-2770.0],[-5270.0,-2730.0],[-5590.0,-2400.0],[-5740.0,-2200.0],[-5990.0,-2250.0],[-6120.0,-1980.0],[-6390.0,-1400.0],[-6280.0,-1270.0],[-6300.0,-1130.0],[-6450.0,-780.0],[-6630.0,-580.0],[-6520.0,-540.0],[-6390.0,-440.0],[-6210.0,-700.0],[-5900.0,-1120.0],[-5760.0,-1260.0],[-5600.0,-1370.0],[-5370.0,-1470.0],[-5140.0,-1510.0],[-4760.0,-1530.0],[-4610.0,-1610.0],[-4480.0,-1780.0],[-4390.0,-1960.0],[-4320.0,-2070.0],[-4250.0,-2160.0],[-4010.0,-2330.0]]],"type": "Polygon"}},
    {"type": "Feature","id": 54,"properties": {"admin_level": 10,"boundary": "administrative","county": "Mariana County","county_slug": "mariana","id": 54,"is_in:country": "United States","is_in:county": "Mariana County","is_in:state": "Leonida","layer": 0,"municipality": null,"name": "Western Keys","place": "island","state": "Leonida","type": "land"},"geometry": {"coordinates": [[[-4010.0,-5240.0],[-4200.0,-5070.0],[-4360.0,-4790.0],[-4730.0,-4690.0],[-4820.0,-4460.0],[-5170.0,-4280.0],[-5290.0,-4000.0],[-5240.0,-3650.0],[-5270.0,-3570.0],[-5330.0,-3380.0],[-5340.0,-3290.0],[-5460.0,-3220.0],[-5600.0,-3080.0],[-5760.0,-2970.0],[-6170.0,-2750.0],[-6250.0,-2720.0],[-6370.0,-2730.0],[-6560.0,-2620.0],[-6760.0,-2890.0],[-6910.0,-3070.0],[-7160.0,-3190.0],[-7370.0,-3170.0],[-7570.0,-3270.0],[-7580.0,-3700.0],[-7620.0,-4050.0],[-7780.0,-4320.0],[-8070.0,-4570.0],[-8580.0,-4840.0],[-8690.0,-5390.0],[-8890.0,-6230.0],[-8650.0,-6810.0],[-8460.0,-6890.0],[-8100.0,-6300.0],[-7750.0,-5820.0],[-7620.0,-5930.0],[-7530.0,-6210.0],[-7270.0,-5880.0],[-6990.0,-5590.0],[-6620.0,-5680.0],[-6190.0,-6470.0],[-6180.0,-6710.0],[-6030.0,-6810.0],[-5760.0,-6870.0],[-5480.0,-6900.0],[-5080.0,-6970.0],[-4710.0,-7030.0],[-4640.0,-6890.0],[-4590.0,-6700.0],[-4400.0,-6630.0],[-4210.0,-6650.0],[-4130.0,-6790.0],[-4220.0,-6960.0],[-4210.0,-7040.0],[-4010.0,-7040.0],[-3920.0,-6950.0],[-3800.0,-6820.0],[-3970.0,-6130.0],[-4000.0,-5710.0],[-4200.0,-5410.0],[-4010.0,-5240.0]]],"type": "Polygon"}},
    {"type": "Feature","id": 55,"properties": {"admin_level": 10,"boundary": "administrative","county": "Mariana County","county_slug": "mariana","id": 55,"is_in:country": "United States","is_in:county": "Mariana County","is_in:state": "Leonida","layer": 0,"municipality": "Capri","name": "Capri","place": "locality","state": "Leonida","type": "land"},"geometry": {"coordinates": [[[-5120.0,80.0],[-5300.0,50.0],[-5550.0,190.0],[-5650.0,210.0],[-5880.0,170.0],[-5950.0,200.0],[-6090.0,420.0],[-6370.0,650.0],[-6730.0,760.0],[-6860.0,730.0],[-7130.0,840.0],[-7420.0,1010.0],[-7720.0,750.0],[-7790.0,440.0],[-7700.0,120.0],[-7400.0,-330.0],[-7250.0,-370.0],[-7100.0,-400.0],[-6760.0,-550.0],[-6630.0,-580.0],[-6520.0,-540.0],[-6390.0,-440.0],[-6210.0,-700.0],[-6080.0,-600.0],[-6070.0,-520.0],[-6060.0,-450.0],[-6030.0,-380.0],[-5910.0,-190.0],[-5860.0,-150.0],[-5830.0,-140.0],[-5710.0,-140.0],[-5670.0,-120.0],[-5660.0,-60.0],[-5130.0,-60.0],[-5070.0,-40.0],[-5030.0,20.0],[-5120.0,80.0]]],"type": "Polygon"}},
    {"type": "Feature","id": 56,"properties": {"admin_level": 10,"boundary": "administrative","county": "Mariana County","county_slug": "mariana","id": 56,"is_in:country": "United States","is_in:county": "Mariana County","is_in:state": "Leonida","layer": 0,"municipality": "Key Lento","name": "Key Lento","place": "island","state": "Leonida","type": "land"},"geometry": {"coordinates": [[[-2000.0,-4940.0],[-2180.0,-5000.0],[-2330.0,-5150.0],[-2340.0,-5410.0],[-2540.0,-5630.0],[-2670.0,-5700.0],[-2810.0,-5960.0],[-2880.0,-6130.0],[-3330.0,-6420.0],[-3450.0,-6610.0],[-3800.0,-6820.0],[-3570.0,-7210.0],[-2370.0,-6360.0],[-1600.0,-5320.0],[-2000.0,-4940.0]]],"type": "Polygon"}},
    {"type": "Feature","id": 57,"properties": {"admin_level": 10,"boundary": "administrative","county": "Mariana County","county_slug": "mariana","id": 57,"is_in:country": "United States","is_in:county": "Mariana County","is_in:state": "Leonida","layer": 0,"municipality": "Watson Bay","name": "Watson Bay","place": "locality","state": "Leonida","type": "land"},"geometry": {"coordinates": [[[-5990.0,-2250.0],[-5740.0,-2200.0],[-5590.0,-2400.0],[-5270.0,-2730.0],[-5090.0,-2770.0],[-4970.0,-2760.0],[-4950.0,-2610.0],[-4890.0,-2510.0],[-4800.0,-2450.0],[-4710.0,-2420.0],[-4650.0,-2420.0],[-4510.0,-2440.0],[-4380.0,-2470.0],[-4300.0,-2510.0],[-4200.0,-2510.0],[-4100.0,-2520.0],[-4070.0,-2610.0],[-3970.0,-2690.0],[-3940.0,-2810.0],[-3940.0,-2890.0],[-3950.0,-3050.0],[-4000.0,-3190.0],[-4050.0,-3230.0],[-4160.0,-3270.0],[-4260.0,-3300.0],[-4350.0,-3320.0],[-4530.0,-3320.0],[-4630.0,-3330.0],[-4700.0,-3360.0],[-4700.0,-3420.0],[-4670.0,-3460.0],[-4770.0,-3520.0],[-4810.0,-3560.0],[-4910.0,-3620.0],[-4980.0,-3660.0],[-5050.0,-3710.0],[-5120.0,-3630.0],[-5240.0,-3650.0],[-5270.0,-3570.0],[-5330.0,-3380.0],[-5340.0,-3290.0],[-5460.0,-3220.0],[-5600.0,-3080.0],[-5760.0,-2970.0],[-5660.0,-2880.0],[-5950.0,-2620.0],[-6060.0,-2490.0],[-6070.0,-2340.0],[-5990.0,-2250.0]]],"type": "Polygon"}},
    {"type": "Feature","id": 58,"properties": {"admin_level": 10,"boundary": "administrative","county": "Vice-Dale County","county_slug": "vice_dale","id": 58,"is_in:country": "United States","is_in:county": "Vice-Dale County","is_in:state": "Leonida","layer": 0,"municipality": null,"name": "Bluegrass","place": "neighbourhood","state": "Leonida","type": "land"},"geometry": {"coordinates": [[[-2290.0,-2890.0],[-2240.0,-2780.0],[-2170.0,-2690.0],[-1990.0,-2630.0],[-2200.0,-1890.0],[-2710.0,-1540.0],[-2890.0,-1480.0],[-3240.0,-1230.0],[-3280.0,-1290.0],[-3270.0,-1350.0],[-3080.0,-1520.0],[-3030.0,-1650.0],[-3060.0,-1790.0],[-3220.0,-2080.0],[-3270.0,-2180.0],[-3290.0,-2320.0],[-3170.0,-2390.0],[-3080.0,-2470.0],[-2990.0,-2510.0],[-2400.0,-2870.0],[-2290.0,-2890.0]]],"type": "Polygon"}},
    {"type": "Feature","id": 59,"properties": {"admin_level": 10,"boundary": "administrative","county": "Vice-Dale County","county_slug": "vice_dale","id": 59,"is_in:country": "United States","is_in:county": "Vice-Dale County","is_in:state": "Leonida","layer": 0,"municipality": null,"name": "Catalan Key","place": "island","state": "Leonida","type": "land"},"geometry": {"coordinates": [[[300.0,-1710.0],[180.0,-2090.0],[240.0,-2290.0],[80.0,-2520.0],[-100.0,-2860.0],[-340.0,-2980.0],[-450.0,-2860.0],[-670.0,-2750.0],[-330.0,-2370.0],[-630.0,-2040.0],[-690.0,-1810.0],[-650.0,-1700.0],[-620.0,-1590.0],[-420.0,-1500.0],[0.0,-1310.0],[190.0,-1310.0],[300.0,-1710.0]]],"type": "Polygon"}},
    {"type": "Feature","id": 60,"properties": {"admin_level": 10,"boundary": "administrative","county": "Vice-Dale County","county_slug": "vice_dale","id": 60,"is_in:country": "United States","is_in:county": "Vice-Dale County","is_in:state": "Leonida","layer": 0,"municipality": null,"name": "Dalton Island","place": "island","state": "Leonida","type": "land"},"geometry": {"coordinates": [[[1160.0,-990.0],[1260.0,-890.0],[1850.0,-780.0],[2340.0,-1180.0],[2610.0,-1410.0],[2490.0,-1580.0],[2250.0,-1590.0],[2090.0,-1860.0],[1550.0,-1840.0],[1400.0,-1610.0],[1160.0,-990.0]]],"type": "Polygon"}},
    {"type": "Feature","id": 61,"properties": {"admin_level": 10,"boundary": "administrative","county": "Vice-Dale County","county_slug": "vice_dale","id": 61,"is_in:country": "United States","is_in:county": "Vice-Dale County","is_in:state": "Leonida","layer": 0,"municipality": null,"name": "Ferry Island","place": "island","state": "Leonida","type": "land"},"geometry": {"coordinates": [[[610.0,210.0],[570.0,30.0],[560.0,-140.0],[680.0,-140.0],[1100.0,-130.0],[1280.0,-90.0],[1200.0,90.0],[1070.0,360.0],[760.0,170.0],[610.0,210.0]]],"type": "Polygon"}},
    {"type": "Feature","id": 62,"properties": {"admin_level": 10,"boundary": "administrative","county": "Vice-Dale County","county_slug": "vice_dale","id": 62,"is_in:country": "United States","is_in:county": "Vice-Dale County","is_in:state": "Leonida","layer": 0,"municipality": null,"name": "Flagler Island","place": "island","state": "Leonida","type": "land"},"geometry": {"coordinates": [[[790.0,760.0],[680.0,960.0],[850.0,1040.0],[1000.0,980.0],[960.0,810.0],[790.0,760.0]]],"type": "Polygon"}},
    {"type": "Feature","id": 63,"properties": {"admin_level": 10,"boundary": "administrative","county": "Vice-Dale County","county_slug": "vice_dale","id": 63,"is_in:country": "United States","is_in:county": "Vice-Dale County","is_in:state": "Leonida","layer": 0,"municipality": null,"name": "Gloriana Key","place": "island","state": "Leonida","type": "land"},"geometry": {"coordinates": [[[300.0,-1710.0],[180.0,-2090.0],[240.0,-2290.0],[780.0,-2310.0],[1280.0,-1850.0],[1400.0,-1610.0],[1160.0,-990.0],[270.0,-930.0],[190.0,-1310.0],[300.0,-1710.0]]],"type": "Polygon"}},
    {"type": "Feature","id": 64,"properties": {"admin_level": 10,"boundary": "administrative","county": "Vice-Dale County","county_slug": "vice_dale","id": 64,"is_in:country": "United States","is_in:county": "Vice-Dale County","is_in:state": "Leonida","layer": 0,"municipality": null,"name": "Peregrine Bay","place": "neighbourhood","state": "Leonida","type": "land"},"geometry": {"coordinates": [[[-2310.0,-4170.0],[-1750.0,-4170.0],[-1330.0,-4210.0],[-950.0,-3720.0],[-880.0,-3300.0],[-600.0,-2970.0],[-450.0,-2860.0],[-670.0,-2750.0],[-890.0,-2790.0],[-970.0,-2850.0],[-1110.0,-2880.0],[-1300.0,-2650.0],[-1400.0,-2590.0],[-1630.0,-2490.0],[-1690.0,-2540.0],[-1990.0,-2630.0],[-2170.0,-2690.0],[-2240.0,-2780.0],[-2290.0,-2890.0],[-2170.0,-2980.0],[-2090.0,-3090.0],[-2120.0,-3540.0],[-2300.0,-3730.0],[-2310.0,-4170.0]]],"type": "Polygon"}},
    {"type": "Feature","id": 65,"properties": {"admin_level": 10,"boundary": "administrative","county": "Vice-Dale County","county_slug": "vice_dale","id": 65,"is_in:country": "United States","is_in:county": "Vice-Dale County","is_in:state": "Leonida","layer": 0,"municipality": null,"name": "Picnic Islands","place": "islet","state": "Leonida","type": "land"},"geometry": {"coordinates": [[[-200.0,1190.0],[-120.0,1290.0],[-10.0,1380.0],[150.0,1490.0],[240.0,1560.0],[350.0,1680.0],[360.0,1800.0],[390.0,1910.0],[120.0,1890.0],[30.0,1870.0],[-100.0,1820.0],[-170.0,1580.0],[-220.0,1430.0],[-230.0,1270.0],[-200.0,1190.0]]],"type": "Polygon"}},
    {"type": "Feature","id": 66,"properties": {"admin_level": 10,"boundary": "administrative","county": "Vice-Dale County","county_slug": "vice_dale","id": 66,"is_in:country": "United States","is_in:county": "Vice-Dale County","is_in:state": "Leonida","layer": 0,"municipality": null,"name": "Port VC","place": "suburb","state": "Leonida","type": "land"},"geometry": {"coordinates": [[[1850.0,-780.0],[1570.0,-500.0],[1100.0,-130.0],[680.0,-140.0],[560.0,-140.0],[60.0,-90.0],[-110.0,-610.0],[-240.0,-670.0],[140.0,-800.0],[270.0,-930.0],[1160.0,-990.0],[1260.0,-890.0],[1850.0,-780.0]]],"type": "Polygon"}},
    {"type": "Feature","id": 67,"properties": {"admin_level": 10,"boundary": "administrative","county": "Vice-Dale County","county_slug": "vice_dale","id": 67,"is_in:country": "United States","is_in:county": "Vice-Dale County","is_in:state": "Leonida","layer": 0,"municipality": null,"name": "Rialto Islands","place": "islet","state": "Leonida","type": "land"},"geometry": {"coordinates": [[[1000.0,980.0],[1080.0,1160.0],[1170.0,1300.0],[1230.0,1390.0],[1240.0,1450.0],[1210.0,1510.0],[1000.0,1560.0],[820.0,1630.0],[710.0,1900.0],[540.0,1910.0],[390.0,1910.0],[360.0,1800.0],[350.0,1680.0],[240.0,1560.0],[150.0,1490.0],[-10.0,1380.0],[-120.0,1290.0],[-200.0,1190.0],[-170.0,1100.0],[-70.0,820.0],[-30.0,660.0],[200.0,700.0],[430.0,640.0],[500.0,570.0],[790.0,760.0],[680.0,960.0],[850.0,1040.0],[1000.0,980.0]]],"type": "Polygon"}},
    {"type": "Feature","id": 68,"properties": {"admin_level": 10,"boundary": "administrative","county": "Vice-Dale County","county_slug": "vice_dale","id": 68,"is_in:country": "United States","is_in:county": "Vice-Dale County","is_in:state": "Leonida","layer": 0,"municipality": null,"name": "Starfish Island","place": "island","state": "Leonida","type": "land"},"geometry": {"coordinates": [[[500.0,570.0],[790.0,760.0],[960.0,810.0],[1080.0,710.0],[1100.0,550.0],[1070.0,360.0],[760.0,170.0],[610.0,210.0],[520.0,330.0],[500.0,570.0]]],"type": "Polygon"}},
    {"type": "Feature","id": 69,"properties": {"admin_level": 10,"boundary": "administrative","county": "Vice-Dale County","county_slug": "vice_dale","id": 69,"is_in:country": "United States","is_in:county": "Vice-Dale County","is_in:state": "Leonida","layer": 0,"municipality": null,"name": "VCIA West","place": "neighbourhood","state": "Leonida","type": "land"},"geometry": {"coordinates": [[[-2880.0,440.0],[-2860.0,390.0],[-2860.0,350.0],[-2880.0,310.0],[-2910.0,270.0],[-2940.0,240.0],[-2950.0,200.0],[-2960.0,110.0],[-3090.0,140.0],[-3210.0,160.0],[-3290.0,150.0],[-3420.0,110.0],[-3600.0,80.0],[-3720.0,80.0],[-3720.0,-400.0],[-3720.0,-500.0],[-3700.0,-600.0],[-3670.0,-700.0],[-3740.0,-760.0],[-3920.0,-690.0],[-4070.0,-630.0],[-4290.0,-500.0],[-4890.0,-80.0],[-5030.0,20.0],[-5120.0,80.0],[-4850.0,280.0],[-4770.0,390.0],[-4610.0,450.0],[-4460.0,540.0],[-4390.0,550.0],[-3900.0,460.0],[-3770.0,460.0],[-3680.0,470.0],[-3390.0,440.0],[-3200.0,370.0],[-2980.0,380.0],[-2880.0,440.0]]],"type": "Polygon"}},
    {"type": "Feature","id": 70,"properties": {"admin_level": 10,"boundary": "administrative","county": "Vice-Dale County","county_slug": "vice_dale","id": 70,"is_in:country": "United States","is_in:county": "Vice-Dale County","is_in:state": "Leonida","layer": 0,"municipality": null,"name": "Watson Island","place": "island","state": "Leonida","type": "land"},"geometry": {"coordinates": [[[610.0,210.0],[570.0,30.0],[560.0,-140.0],[60.0,-90.0],[110.0,170.0],[0.0,530.0],[-30.0,660.0],[200.0,700.0],[430.0,640.0],[500.0,570.0],[520.0,330.0],[610.0,210.0]]],"type": "Polygon"}},
    {"type": "Feature","id": 71,"properties": {"admin_level": 10,"boundary": "administrative","county": "Vice-Dale County","county_slug": "vice_dale","id": 71,"is_in:country": "United States","is_in:county": "Vice-Dale County","is_in:state": "Leonida","layer": 0,"municipality": "Hamlet","name": "Hamlet","place": "neighbourhood","state": "Leonida","type": "land"},"geometry": {"coordinates": [[[-3450.0,-3060.0],[-3440.0,-3110.0],[-3390.0,-3240.0],[-3370.0,-3340.0],[-3320.0,-3680.0],[-3280.0,-3710.0],[-3210.0,-3710.0],[-3060.0,-3650.0],[-2990.0,-3670.0],[-2940.0,-3710.0],[-2810.0,-3720.0],[-2730.0,-3910.0],[-2540.0,-3990.0],[-2540.0,-4310.0],[-2420.0,-4310.0],[-2310.0,-4170.0],[-2300.0,-3730.0],[-2120.0,-3540.0],[-2090.0,-3090.0],[-2170.0,-2980.0],[-2290.0,-2890.0],[-2400.0,-2870.0],[-2990.0,-2510.0],[-3080.0,-2470.0],[-3290.0,-2820.0],[-3360.0,-2990.0],[-3450.0,-3060.0]]],"type": "Polygon"}},
    {"type": "Feature","id": 72,"properties": {"admin_level": 10,"boundary": "administrative","county": "Vice-Dale County","county_slug": "vice_dale","id": 72,"is_in:country": "United States","is_in:county": "Vice-Dale County","is_in:state": "Leonida","layer": 0,"municipality": "Vice Beach","name": "Haulover","place": "neighbourhood","state": "Leonida","type": "land"},"geometry": {"coordinates": [[[380.0,2920.0],[500.0,2950.0],[690.0,2920.0],[850.0,2860.0],[1030.0,2680.0],[1420.0,3010.0],[1200.0,3340.0],[1060.0,3340.0],[860.0,3220.0],[740.0,3160.0],[610.0,3150.0],[490.0,3130.0],[370.0,3040.0],[380.0,2920.0]]],"type": "Polygon"}},
    {"type": "Feature","id": 73,"properties": {"admin_level": 10,"boundary": "administrative","county": "Vice-Dale County","county_slug": "vice_dale","id": 73,"is_in:country": "United States","is_in:county": "Vice-Dale County","is_in:state": "Leonida","layer": 0,"municipality": "Vice Beach","name": "Leaf Links","place": "neighbourhood","state": "Leonida","type": "land"},"geometry": {"coordinates": [[[380.0,2920.0],[500.0,2950.0],[690.0,2920.0],[850.0,2860.0],[1030.0,2680.0],[1120.0,2520.0],[1020.0,2370.0],[860.0,2240.0],[710.0,2140.0],[600.0,2060.0],[540.0,1910.0],[390.0,1910.0],[120.0,1890.0],[30.0,1870.0],[50.0,1970.0],[90.0,2060.0],[110.0,2150.0],[110.0,2300.0],[70.0,2450.0],[160.0,2650.0],[270.0,2810.0],[380.0,2920.0]]],"type": "Polygon"}},
    {"type": "Feature","id": 74,"properties": {"admin_level": 10,"boundary": "administrative","county": "Vice-Dale County","county_slug": "vice_dale","id": 74,"is_in:country": "United States","is_in:county": "Vice-Dale County","is_in:state": "Leonida","layer": 0,"municipality": "Vice Beach","name": "Nautilus","place": "neighbourhood","state": "Leonida","type": "land"},"geometry": {"coordinates": [[[1240.0,1450.0],[1360.0,1490.0],[1420.0,1480.0],[1720.0,1580.0],[1790.0,1650.0],[1760.0,1740.0],[1770.0,1860.0],[1790.0,1940.0],[1650.0,2120.0],[1560.0,2180.0],[1500.0,2290.0],[1380.0,2380.0],[1310.0,2390.0],[1120.0,2520.0],[1020.0,2370.0],[860.0,2240.0],[710.0,2140.0],[600.0,2060.0],[540.0,1910.0],[710.0,1900.0],[820.0,1630.0],[1000.0,1560.0],[1210.0,1510.0],[1240.0,1450.0]]],"type": "Polygon"}},
    {"type": "Feature","id": 75,"properties": {"admin_level": 10,"boundary": "administrative","county": "Vice-Dale County","county_slug": "vice_dale","id": 75,"is_in:country": "United States","is_in:county": "Vice-Dale County","is_in:state": "Leonida","layer": 0,"municipality": "Vice Beach","name": "Ocean Beach","place": "suburb","state": "Leonida","type": "land"},"geometry": {"coordinates": [[[2300.0,150.0],[2390.0,950.0],[2340.0,1260.0],[2350.0,1540.0],[1870.0,1540.0],[1870.0,1590.0],[1850.0,1590.0],[1840.0,1620.0],[1810.0,1660.0],[1790.0,1650.0],[1720.0,1580.0],[1420.0,1480.0],[1360.0,1490.0],[1240.0,1450.0],[1230.0,1390.0],[1170.0,1300.0],[1080.0,1160.0],[1000.0,980.0],[960.0,810.0],[1080.0,710.0],[1100.0,550.0],[1070.0,360.0],[1200.0,90.0],[1420.0,170.0],[1480.0,170.0],[1670.0,160.0],[1900.0,140.0],[2010.0,150.0],[2300.0,150.0]]],"type": "Polygon"}},
    {"type": "Feature","id": 76,"properties": {"admin_level": 10,"boundary": "administrative","county": "Vice-Dale County","county_slug": "vice_dale","id": 76,"is_in:country": "United States","is_in:county": "Vice-Dale County","is_in:state": "Leonida","layer": 0,"municipality": "Vice Beach","name": "Ocean Beach South","place": "suburb","state": "Leonida","type": "land"},"geometry": {"coordinates": [[[1200.0,90.0],[1420.0,170.0],[1480.0,170.0],[1670.0,160.0],[1900.0,140.0],[2010.0,150.0],[2300.0,150.0],[2340.0,-470.0],[2320.0,-770.0],[2490.0,-1010.0],[2340.0,-1180.0],[1850.0,-780.0],[1570.0,-500.0],[1100.0,-130.0],[1280.0,-90.0],[1200.0,90.0]]],"type": "Polygon"}},
    {"type": "Feature","id": 77,"properties": {"admin_level": 10,"boundary": "administrative","county": "Vice-Dale County","county_slug": "vice_dale","id": 77,"is_in:country": "United States","is_in:county": "Vice-Dale County","is_in:state": "Leonida","layer": 0,"municipality": "Vice Beach","name": "Washington Beach","place": "suburb","state": "Leonida","type": "land"},"geometry": {"coordinates": [[[1420.0,3010.0],[1640.0,3100.0],[2310.0,2180.0],[2350.0,1540.0],[1870.0,1540.0],[1870.0,1590.0],[1850.0,1590.0],[1840.0,1620.0],[1810.0,1660.0],[1790.0,1650.0],[1760.0,1740.0],[1770.0,1860.0],[1790.0,1940.0],[1650.0,2120.0],[1560.0,2180.0],[1500.0,2290.0],[1380.0,2380.0],[1310.0,2390.0],[1120.0,2520.0],[1030.0,2680.0],[1420.0,3010.0]]],"type": "Polygon"}},
    {"type": "Feature","id": 78,"properties": {"admin_level": 10,"boundary": "administrative","county": "Vice-Dale County","county_slug": "vice_dale","id": 78,"is_in:country": "United States","is_in:county": "Vice-Dale County","is_in:state": "Leonida","layer": 0,"municipality": "Vice City","name": "Bayside","place": "neighbourhood","state": "Leonida","type": "land"},"geometry": {"coordinates": [[[-430.0,1220.0],[-530.0,1110.0],[-530.0,900.0],[-560.0,690.0],[-560.0,600.0],[-430.0,610.0],[-160.0,540.0],[0.0,530.0],[-30.0,660.0],[-70.0,820.0],[-170.0,1100.0],[-200.0,1190.0],[-230.0,1270.0],[-220.0,1430.0],[-170.0,1580.0],[-240.0,1600.0],[-320.0,1630.0],[-380.0,1500.0],[-410.0,1410.0],[-430.0,1300.0],[-430.0,1220.0]]],"type": "Polygon"}},
    {"type": "Feature","id": 79,"properties": {"admin_level": 10,"boundary": "administrative","county": "Vice-Dale County","county_slug": "vice_dale","id": 79,"is_in:country": "United States","is_in:county": "Vice-Dale County","is_in:state": "Leonida","layer": 0,"municipality": "Vice City","name": "Bohemia","place": "neighbourhood","state": "Leonida","type": "land"},"geometry": {"coordinates": [[[-730.0,2080.0],[-510.0,2030.0],[-410.0,2020.0],[-120.0,1970.0],[50.0,1970.0],[90.0,2060.0],[110.0,2150.0],[110.0,2300.0],[70.0,2450.0],[-30.0,2430.0],[-120.0,2390.0],[-340.0,2370.0],[-490.0,2350.0],[-630.0,2280.0],[-730.0,2080.0]]],"type": "Polygon"}},
    {"type": "Feature","id": 80,"properties": {"admin_level": 10,"boundary": "administrative","county": "Vice-Dale County","county_slug": "vice_dale","id": 80,"is_in:country": "United States","is_in:county": "Vice-Dale County","is_in:state": "Leonida","layer": 0,"municipality": "Vice City","name": "Crosstown","place": "neighbourhood","state": "Leonida","type": "land"},"geometry": {"coordinates": [[[-510.0,1750.0],[-560.0,1640.0],[-670.0,1490.0],[-750.0,1380.0],[-810.0,1270.0],[-860.0,1120.0],[-880.0,1050.0],[-900.0,980.0],[-930.0,800.0],[-960.0,560.0],[-700.0,590.0],[-560.0,600.0],[-560.0,690.0],[-530.0,900.0],[-530.0,1110.0],[-430.0,1220.0],[-430.0,1300.0],[-410.0,1410.0],[-380.0,1500.0],[-320.0,1630.0],[-430.0,1670.0],[-510.0,1750.0]]],"type": "Polygon"}},
    {"type": "Feature","id": 81,"properties": {"admin_level": 10,"boundary": "administrative","county": "Vice-Dale County","county_slug": "vice_dale","id": 81,"is_in:country": "United States","is_in:county": "Vice-Dale County","is_in:state": "Leonida","layer": 0,"municipality": "Vice City","name": "Downtown","place": "suburb","state": "Leonida","type": "land"},"geometry": {"coordinates": [[[-240.0,-670.0],[-110.0,-610.0],[60.0,-90.0],[110.0,170.0],[0.0,530.0],[-160.0,540.0],[-430.0,610.0],[-560.0,600.0],[-700.0,590.0],[-960.0,560.0],[-970.0,440.0],[-970.0,280.0],[-970.0,-350.0],[-1000.0,-500.0],[-1070.0,-640.0],[-990.0,-720.0],[-820.0,-750.0],[-660.0,-660.0],[-570.0,-660.0],[-330.0,-710.0],[-240.0,-670.0]]],"type": "Polygon"}},
    {"type": "Feature","id": 82,"properties": {"admin_level": 10,"boundary": "administrative","county": "Vice-Dale County","county_slug": "vice_dale","id": 82,"is_in:country": "United States","is_in:county": "Vice-Dale County","is_in:state": "Leonida","layer": 0,"municipality": "Vice City","name": "Gables Estates","place": "neighbourhood","state": "Leonida","type": "land"},"geometry": {"coordinates": [[[-1400.0,-2590.0],[-1300.0,-2650.0],[-1110.0,-2880.0],[-970.0,-2850.0],[-890.0,-2790.0],[-930.0,-2670.0],[-1200.0,-2320.0],[-1270.0,-2320.0],[-1430.0,-2470.0],[-1400.0,-2590.0]]],"type": "Polygon"}},
    {"type": "Feature","id": 83,"properties": {"admin_level": 10,"boundary": "administrative","county": "Vice-Dale County","county_slug": "vice_dale","id": 83,"is_in:country": "United States","is_in:county": "Vice-Dale County","is_in:state": "Leonida","layer": 0,"municipality": "Vice City","name": "La Perle","place": "neighbourhood","state": "Leonida","type": "land"},"geometry": {"coordinates": [[[-730.0,2080.0],[-510.0,2030.0],[-500.0,1850.0],[-510.0,1750.0],[-560.0,1640.0],[-670.0,1490.0],[-750.0,1380.0],[-810.0,1270.0],[-860.0,1120.0],[-880.0,1050.0],[-930.0,1100.0],[-1020.0,1140.0],[-1120.0,1140.0],[-1220.0,1140.0],[-1310.0,1150.0],[-1320.0,1250.0],[-1360.0,1300.0],[-1420.0,1350.0],[-1290.0,1450.0],[-1210.0,1600.0],[-940.0,1780.0],[-800.0,1920.0],[-730.0,2080.0]]],"type": "Polygon"}},
    {"type": "Feature","id": 84,"properties": {"admin_level": 10,"boundary": "administrative","county": "Vice-Dale County","county_slug": "vice_dale","id": 84,"is_in:country": "United States","is_in:county": "Vice-Dale County","is_in:state": "Leonida","layer": 0,"municipality": "Vice City","name": "Little Cuba","place": "neighbourhood","state": "Leonida","type": "land"},"geometry": {"coordinates": [[[-1240.0,-290.0],[-1320.0,-80.0],[-1470.0,180.0],[-1470.0,430.0],[-1270.0,490.0],[-960.0,560.0],[-970.0,440.0],[-970.0,280.0],[-970.0,-350.0],[-1000.0,-500.0],[-1070.0,-640.0],[-1140.0,-530.0],[-1170.0,-450.0],[-1200.0,-350.0],[-1240.0,-290.0]]],"type": "Polygon"}},
    {"type": "Feature","id": 85,"properties": {"admin_level": 10,"boundary": "administrative","county": "Vice-Dale County","county_slug": "vice_dale","id": 85,"is_in:country": "United States","is_in:county": "Vice-Dale County","is_in:state": "Leonida","layer": 0,"municipality": "Vice City","name": "Peacock Bay","place": "neighbourhood","state": "Leonida","type": "land"},"geometry": {"coordinates": [[[-650.0,-1700.0],[-690.0,-1810.0],[-630.0,-2040.0],[-330.0,-2370.0],[-670.0,-2750.0],[-890.0,-2790.0],[-930.0,-2670.0],[-1200.0,-2320.0],[-1270.0,-2320.0],[-1430.0,-2470.0],[-1400.0,-2590.0],[-1630.0,-2490.0],[-1550.0,-2260.0],[-1550.0,-1850.0],[-1530.0,-1720.0],[-1540.0,-1620.0],[-1560.0,-1550.0],[-1440.0,-1500.0],[-1390.0,-1480.0],[-1370.0,-1430.0],[-1010.0,-1580.0],[-650.0,-1700.0]]],"type": "Polygon"}},
    {"type": "Feature","id": 86,"properties": {"admin_level": 10,"boundary": "administrative","county": "Vice-Dale County","county_slug": "vice_dale","id": 86,"is_in:country": "United States","is_in:county": "Vice-Dale County","is_in:state": "Leonida","layer": 0,"municipality": "Vice City","name": "Rockridge","place": "neighbourhood","state": "Leonida","type": "land"},"geometry": {"coordinates": [[[-880.0,1050.0],[-930.0,1100.0],[-1020.0,1140.0],[-1120.0,1140.0],[-1220.0,1140.0],[-1310.0,1150.0],[-1320.0,1250.0],[-1360.0,1300.0],[-1420.0,1350.0],[-1550.0,1290.0],[-1680.0,1210.0],[-1910.0,1100.0],[-1920.0,1060.0],[-1860.0,980.0],[-1820.0,960.0],[-1590.0,740.0],[-1520.0,660.0],[-1480.0,590.0],[-1470.0,430.0],[-1270.0,490.0],[-960.0,560.0],[-930.0,800.0],[-900.0,980.0],[-880.0,1050.0]]],"type": "Polygon"}},
    {"type": "Feature","id": 87,"properties": {"admin_level": 10,"boundary": "administrative","county": "Vice-Dale County","county_slug": "vice_dale","id": 87,"is_in:country": "United States","is_in:county": "Vice-Dale County","is_in:state": "Leonida","layer": 0,"municipality": "Vice City","name": "Salton","place": "neighbourhood","state": "Leonida","type": "land"},"geometry": {"coordinates": [[[-1740.0,-230.0],[-1670.0,-280.0],[-1620.0,-340.0],[-1550.0,-430.0],[-1460.0,-380.0],[-1390.0,-350.0],[-1240.0,-290.0],[-1200.0,-350.0],[-1170.0,-450.0],[-1140.0,-530.0],[-1070.0,-640.0],[-1090.0,-680.0],[-1170.0,-880.0],[-1370.0,-1430.0],[-1390.0,-1480.0],[-1440.0,-1500.0],[-1560.0,-1550.0],[-1580.0,-1560.0],[-1620.0,-1490.0],[-1610.0,-1350.0],[-1610.0,-1240.0],[-1650.0,-1110.0],[-1660.0,-990.0],[-1660.0,-920.0],[-1740.0,-890.0],[-1780.0,-870.0],[-1800.0,-830.0],[-1820.0,-730.0],[-1830.0,-630.0],[-1830.0,-560.0],[-1800.0,-450.0],[-1770.0,-370.0],[-1750.0,-310.0],[-1740.0,-230.0]]],"type": "Polygon"}},
    {"type": "Feature","id": 88,"properties": {"admin_level": 10,"boundary": "administrative","county": "Vice-Dale County","county_slug": "vice_dale","id": 88,"is_in:country": "United States","is_in:county": "Vice-Dale County","is_in:state": "Leonida","layer": 0,"municipality": "Vice City","name": "Southside","place": "neighbourhood","state": "Leonida","type": "land"},"geometry": {"coordinates": [[[-1990.0,-2630.0],[-1690.0,-2540.0],[-1630.0,-2490.0],[-1550.0,-2260.0],[-1550.0,-1850.0],[-1530.0,-1720.0],[-1540.0,-1620.0],[-1560.0,-1550.0],[-1580.0,-1560.0],[-1700.0,-1680.0],[-1860.0,-1820.0],[-2080.0,-1860.0],[-2200.0,-1890.0],[-1990.0,-2630.0]]],"type": "Polygon"}},
    {"type": "Feature","id": 89,"properties": {"admin_level": 10,"boundary": "administrative","county": "Vice-Dale County","county_slug": "vice_dale","id": 89,"is_in:country": "United States","is_in:county": "Vice-Dale County","is_in:state": "Leonida","layer": 0,"municipality": "Vice City","name": "Stockyard","place": "neighbourhood","state": "Leonida","type": "land"},"geometry": {"coordinates": [[[30.0,1870.0],[50.0,1970.0],[-120.0,1970.0],[-410.0,2020.0],[-510.0,2030.0],[-500.0,1850.0],[-510.0,1750.0],[-430.0,1670.0],[-320.0,1630.0],[-240.0,1600.0],[-170.0,1580.0],[-100.0,1820.0],[30.0,1870.0]]],"type": "Polygon"}},
    {"type": "Feature","id": 90,"properties": {"admin_level": 10,"boundary": "administrative","county": "Vice-Dale County","county_slug": "vice_dale","id": 90,"is_in:country": "United States","is_in:county": "Vice-Dale County","is_in:state": "Leonida","layer": 0,"municipality": "Vice City","name": "Tequesta","place": "neighbourhood","state": "Leonida","type": "land"},"geometry": {"coordinates": [[[-650.0,-1700.0],[-620.0,-1590.0],[-420.0,-1500.0],[-510.0,-1270.0],[-450.0,-1040.0],[-380.0,-960.0],[-330.0,-710.0],[-570.0,-660.0],[-660.0,-660.0],[-820.0,-750.0],[-990.0,-720.0],[-1070.0,-640.0],[-1090.0,-680.0],[-1170.0,-880.0],[-1370.0,-1430.0],[-1010.0,-1580.0],[-650.0,-1700.0]]],"type": "Polygon"}},
    {"type": "Feature","id": 91,"properties": {"admin_level": 10,"boundary": "administrative","county": "Vice-Dale County","county_slug": "vice_dale","id": 91,"is_in:country": "United States","is_in:county": "Vice-Dale County","is_in:state": "Leonida","layer": 0,"municipality": "Vice City","name": "Tequesta Retreat","place": "neighbourhood","state": "Leonida","type": "land"},"geometry": {"coordinates": [[[-510.0,-1270.0],[-420.0,-1500.0],[0.0,-1310.0],[190.0,-1310.0],[270.0,-930.0],[140.0,-800.0],[-240.0,-670.0],[-330.0,-710.0],[-380.0,-960.0],[-450.0,-1040.0],[-510.0,-1270.0]]],"type": "Polygon"}},
    {"type": "Feature","id": 92,"properties": {"admin_level": 10,"boundary": "administrative","county": "Vice-Dale County","county_slug": "vice_dale","id": 92,"is_in:country": "United States","is_in:county": "Vice-Dale County","is_in:state": "Leonida","layer": 0,"municipality": "Vice City","name": "Tisha-Wocka","place": "neighbourhood","state": "Leonida","type": "land"},"geometry": {"coordinates": [[[-2950.0,200.0],[-2430.0,250.0],[-2030.0,250.0],[-1920.0,250.0],[-1800.0,280.0],[-1620.0,380.0],[-1470.0,430.0],[-1480.0,590.0],[-1520.0,660.0],[-1590.0,740.0],[-1820.0,960.0],[-1860.0,980.0],[-1920.0,1060.0],[-1980.0,1080.0],[-2400.0,980.0],[-2770.0,1340.0],[-2770.0,1530.0],[-2900.0,1520.0],[-2900.0,1480.0],[-2910.0,1400.0],[-3020.0,1040.0],[-3100.0,940.0],[-3120.0,850.0],[-3120.0,810.0],[-3100.0,770.0],[-2910.0,520.0],[-2880.0,440.0],[-2860.0,390.0],[-2860.0,350.0],[-2880.0,310.0],[-2910.0,270.0],[-2940.0,240.0],[-2950.0,200.0]]],"type": "Polygon"}},
    {"type": "Feature","id": 93,"properties": {"admin_level": 10,"boundary": "administrative","county": "Vice-Dale County","county_slug": "vice_dale","id": 93,"is_in:country": "United States","is_in:county": "Vice-Dale County","is_in:state": "Leonida","layer": 0,"municipality": "Vice City","name": "Unknown","place": "neighbourhood","state": "Leonida","type": "land"},"geometry": {"coordinates": [[[-2950.0,200.0],[-2430.0,250.0],[-2030.0,250.0],[-1920.0,250.0],[-1800.0,280.0],[-1620.0,380.0],[-1470.0,430.0],[-1470.0,180.0],[-1320.0,-80.0],[-1240.0,-290.0],[-1390.0,-350.0],[-1460.0,-380.0],[-1550.0,-430.0],[-1620.0,-340.0],[-1670.0,-280.0],[-1740.0,-230.0],[-1800.0,-190.0],[-1880.0,-150.0],[-1990.0,-110.0],[-2100.0,-90.0],[-2160.0,-120.0],[-2250.0,-120.0],[-2390.0,-80.0],[-2610.0,10.0],[-2720.0,50.0],[-2960.0,110.0],[-2950.0,200.0]]],"type": "Polygon"}},
    {"type": "Feature","id": 94,"properties": {"admin_level": 10,"boundary": "administrative","county": "Vice-Dale County","county_slug": "vice_dale","id": 94,"is_in:country": "United States","is_in:county": "Vice-Dale County","is_in:state": "Leonida","layer": 0,"municipality": "Vice City","name": "Vice City International Airport","place": "suburb","state": "Leonida","type": "land"},"geometry": {"coordinates": [[[-3740.0,-760.0],[-3670.0,-700.0],[-3700.0,-600.0],[-3720.0,-500.0],[-3720.0,-400.0],[-3720.0,80.0],[-3600.0,80.0],[-3420.0,110.0],[-3290.0,150.0],[-3210.0,160.0],[-3090.0,140.0],[-2960.0,110.0],[-2720.0,50.0],[-2610.0,10.0],[-2390.0,-80.0],[-2250.0,-120.0],[-2160.0,-120.0],[-2100.0,-90.0],[-1990.0,-110.0],[-1880.0,-150.0],[-1800.0,-190.0],[-1740.0,-230.0],[-1750.0,-310.0],[-1770.0,-370.0],[-1800.0,-450.0],[-1830.0,-560.0],[-1830.0,-630.0],[-1820.0,-730.0],[-1800.0,-830.0],[-1780.0,-870.0],[-1740.0,-890.0],[-1660.0,-920.0],[-1660.0,-990.0],[-1650.0,-1110.0],[-1610.0,-1240.0],[-1610.0,-1350.0],[-1620.0,-1490.0],[-1580.0,-1560.0],[-1700.0,-1680.0],[-1860.0,-1820.0],[-2080.0,-1860.0],[-2200.0,-1890.0],[-2710.0,-1540.0],[-2890.0,-1480.0],[-3240.0,-1230.0],[-3310.0,-1180.0],[-3430.0,-1100.0],[-3620.0,-910.0],[-3740.0,-760.0]]],"type": "Polygon"}}
  ]
}
