{
  "type": "FeatureCollection",
  "name": "water",
  "crs": { "type": "name", "properties": { "name": "urn:ogc:def:crs:EPSG::4087" } },
  "features": [
    {"type": "Feature","id": 18,"properties": {"id": 18,"layer": 0,"name": "Lake Leonida","natural": "water","tidal": "no","water": "lake"},"geometry": {"coordinates": [[[-1770.0,5460.0],[-1740.0,5490.0],[-1700.0,5440.0],[-1700.0,5370.0],[-1470.0,5200.0],[-1430.0,5120.0],[-1410.0,5030.0],[-1410.0,4940.0],[-1420.0,4790.0],[-1450.0,4650.0],[-1470.0,4580.0],[-1590.0,4390.0],[-1650.0,4320.0],[-1720.0,4260.0],[-1800.0,4180.0],[-1870.0,4110.0],[-1910.0,4070.0],[-2040.0,4040.0],[-2130.0,4040.0],[-2260.0,4060.0],[-2360.0,4130.0],[-2540.0,4400.0],[-2590.0,4510.0],[-2610.0,4590.0],[-2550.0,4710.0],[-2540.0,4760.0],[-2530.0,4830.0],[-2510.0,4860.0],[-2530.0,5010.0],[-2520.0,5180.0],[-2480.0,5230.0],[-2390.0,5130.0],[-2340.0,5210.0],[-2270.0,5210.0],[-2190.0,5250.0],[-2150.0,5300.0],[-2040.0,5300.0],[-2020.0,5330.0],[-1830.0,5410.0],[-1770.0,5460.0]]],"type": "Polygon"}},
    {"type": "Feature","id": 19,"properties": {"id": 19,"layer": 0,"name": "Lakeside","natural": "water","tidal": "no","water": "lake"},"geometry": {"coordinates": [[[-1300.0,3220.0],[-1060.0,3220.0],[-1010.0,3200.0],[-960.0,3160.0],[-910.0,3140.0],[-710.0,3140.0],[-480.0,3140.0],[-400.0,3170.0],[-310.0,3220.0],[-250.0,3270.0],[-210.0,3360.0],[-180.0,3450.0],[-360.0,3620.0],[-600.0,3940.0],[-680.0,4050.0],[-750.0,4190.0],[-970.0,4470.0],[-1150.0,4610.0],[-1450.0,4650.0],[-1470.0,4580.0],[-1590.0,4390.0],[-1510.0,4310.0],[-1460.0,4250.0],[-1390.0,4140.0],[-1350.0,4040.0],[-1340.0,3950.0],[-1340.0,3900.0],[-1300.0,3770.0],[-1270.0,3680.0],[-1250.0,3540.0],[-1250.0,3370.0],[-1270.0,3290.0],[-1300.0,3220.0]]],"type": "Polygon"}},
    {"type": "Feature","id": 95,"properties": {"id": 95,"layer": -1,"name": "Atlantic Ocean","natural": "water","tidal": "yes","water": "sea"},"geometry": {"coordinates": [[[140.0,-2860.0],[270.0,-2990.0],[4000.0,-9000.0],[4000.0,11000.0],[-3990.0,11000.0],[-4000.0,9570.0],[-3350.0,9500.0],[-2850.0,9350.0],[-2480.0,9380.0],[-2120.0,9490.0],[-1970.0,9480.0],[-1570.0,9230.0],[-1390.0,8890.0],[-1130.0,8710.0],[-880.0,8470.0],[-960.0,7990.0],[-950.0,7670.0],[-800.0,7500.0],[-740.0,7330.0],[-650.0,7210.0],[-620.0,6970.0],[-620.0,6820.0],[-460.0,6670.0],[-340.0,6570.0],[-350.0,6350.0],[0.0,6200.0],[250.0,6090.0],[250.0,6380.0],[410.0,6680.0],[650.0,6780.0],[1030.0,6270.0],[780.0,6000.0],[680.0,5740.0],[590.0,5310.0],[540.0,4890.0],[740.0,4250.0],[1050.0,3590.0],[1200.0,3470.0],[1200.0,3340.0],[1420.0,3010.0],[1640.0,3100.0],[2310.0,2180.0],[2350.0,1540.0],[2340.0,1260.0],[2390.0,950.0],[2300.0,150.0],[2340.0,-470.0],[2320.0,-770.0],[2490.0,-1010.0],[2340.0,-1180.0],[2610.0,-1410.0],[2490.0,-1580.0],[2250.0,-1590.0],[2090.0,-1860.0],[1550.0,-1840.0],[1400.0,-1610.0],[1280.0,-1850.0],[780.0,-2310.0],[240.0,-2290.0],[80.0,-2520.0],[-100.0,-2860.0],[140.0,-2860.0]]],"type": "Polygon"}},
    {"type": "Feature","id": 96,"properties": {"id": 96,"layer": -1,"name": "Gulf of Leonida","natural": "water","tidal": "yes","water": "sea"},"geometry": {"coordinates": [[[-8890.0,-6230.0],[-8690.0,-5390.0],[-8580.0,-4840.0],[-8070.0,-4570.0],[-7780.0,-4320.0],[-7620.0,-4050.0],[-7580.0,-3700.0],[-7570.0,-3270.0],[-7370.0,-3170.0],[-7160.0,-3190.0],[-6910.0,-3070.0],[-6760.0,-2890.0],[-6560.0,-2620.0],[-6590.0,-2410.0],[-6520.0,-2310.0],[-6510.0,-2240.0],[-6410.0,-2190.0],[-6490.0,-2020.0],[-6670.0,-1930.0],[-6790.0,-1810.0],[-6740.0,-1630.0],[-6700.0,-1440.0],[-6730.0,-1260.0],[-6840.0,-1140.0],[-6970.0,-1070.0],[-6960.0,-970.0],[-7200.0,-870.0],[-7360.0,-870.0],[-7480.0,-800.0],[-7530.0,-660.0],[-7810.0,-870.0],[-8210.0,-970.0],[-8670.0,-890.0],[-8970.0,-380.0],[-9180.0,500.0],[-9160.0,1250.0],[-9560.0,1890.0],[-9690.0,2380.0],[-9740.0,2760.0],[-9610.0,2970.0],[-9550.0,3310.0],[-9440.0,3540.0],[-9570.0,4110.0],[-9110.0,4640.0],[-8600.0,5270.0],[-8650.0,5460.0],[-8390.0,5810.0],[-7380.0,5950.0],[-7000.0,6270.0],[-6810.0,6970.0],[-6240.0,8030.0],[-5880.0,8460.0],[-5500.0,8730.0],[-5010.0,9340.0],[-4460.0,9630.0],[-4000.0,9570.0],[-3990.0,11000.0],[-11000.0,11000.0],[-11000.0,-9000.0],[-8890.0,-6230.0]]],"type": "Polygon"}},
    {"type": "Feature","id": 97,"properties": {"id": 97,"layer": -1,"name": "Leonida Straits","natural": "water","tidal": "yes","water": "sea"},"geometry": {"coordinates": [[[270.0,-2990.0],[170.0,-3160.0],[200.0,-3350.0],[80.0,-3480.0],[-60.0,-3400.0],[-170.0,-3450.0],[-230.0,-3630.0],[-430.0,-3630.0],[-500.0,-3450.0],[-780.0,-3850.0],[-890.0,-4440.0],[-1260.0,-4800.0],[-1160.0,-5320.0],[-1610.0,-5940.0],[-1740.0,-6310.0],[-2200.0,-6610.0],[-2470.0,-6970.0],[-2550.0,-7300.0],[-3040.0,-7770.0],[-3300.0,-8180.0],[-3980.0,-8180.0],[-4110.0,-7760.0],[-4740.0,-7570.0],[-4990.0,-7540.0],[-5380.0,-7600.0],[-5810.0,-7230.0],[-6100.0,-7100.0],[-6340.0,-7160.0],[-6480.0,-7350.0],[-6690.0,-7470.0],[-7810.0,-7470.0],[-8070.0,-7150.0],[-8280.0,-6970.0],[-8460.0,-6890.0],[-8650.0,-6810.0],[-8890.0,-6230.0],[-11000.0,-9000.0],[4000.0,-9000.0],[270.0,-2990.0]]],"type": "Polygon"}}
  ]
}
